PK;NOMBRE;DESCRIPCION-ENTIDAD;HORARIO;EQUIPAMIENTO;TRANSPORTE;DESCRIPCION;ACCESIBILIDAD;CONTENT-URL;NOMBRE-VIA;CLASE-VIAL;TIPO-NUM;NUM;PLANTA;PUERTA;ESCALERAS;ORIENTACION;LOCALIDAD;PROVINCIA;CODIGO-POSTAL;COD-BARRIO;BARRIO;COD-DISTRITO;DISTRITO;COORDENADA-X;COORDENADA-Y;LATITUD;LONGITUD;TELEFONO;FAX;EMAIL;TIPO
5989871;"Auditorio Carmen Laforet (Ciudad Lineal)";"Ubicado en el Centro de Mayores Carmen Laforet";"De lunes a sábado, de 9 a 21 horas. Domingos y festivos y agosto cerrado.";"Aforo: 190 personas Zona wifi";"Metro: Pinar de Chamartín (líneas 1, 4 y línea 1 metro ligero)";"";"1";"http://www.madrid.es/sites/v/index.jsp?vgnextchannel=bfa48ab43d6bb410VgnVCM100000171f5a0aRCRD&vgnextoid=fca22248514ae210VgnVCM1000000b205a0aRCRD";"JAZMIN";"CALLE";"V";"46";"";"";"";"";"MADRID";"MADRID";"28033";"9";"COSTILLARES";"15";"CIUDAD LINEAL";"443573";"4481211";"40.47967249471556";"-3.6657243894913565";"913 831 456";"";"cscsiena@madrid.es";"/contenido/entidadesYorganismos/AuditoriosSalasConcierto"
2389;"Auditorio al aire libre. Parque del Calero";"";"";"Zona wifi Cafetería";"Metro: Quintana (línea 5), Barrio de la Concepción (línea 7).";"";"1";"http://www.madrid.es/sites/v/index.jsp?vgnextchannel=bfa48ab43d6bb410VgnVCM100000171f5a0aRCRD&vgnextoid=c6237b503a71c010VgnVCM1000000b205a0aRCRD";"JOSE DEL HIERRO";"CALLE";"V";"3";"";"";"";"";"MADRID";"MADRID";"28027";"4";"LA CONCEPCION";"15";"CIUDAD LINEAL";"444836";"4476387";"40.436300129244366";"-3.65040832835415";"605 479 326";"";"cultuclineal@madrid.es";"/contenido/entidadesYorganismos/AuditoriosSalasConcierto"
139451;"Auditorio y sala de exposiciones Paco de Lucía (Latina)";"";"Cerrado durante todo el mes de agosto.";"Sala de exposiciones. Salón de actos y auditorio con aforo máximo de 275 personas.";"Metro de Madrid. Línea 5. Estación: Aluche. Autobuses de la EMT. Líneas: 138, 139, 155, 17. Cercanías RENFE. Línea C 5. Estación: Aluche.";"";"1,6";"http://www.madrid.es/sites/v/index.jsp?vgnextchannel=bfa48ab43d6bb410VgnVCM100000171f5a0aRCRD&vgnextoid=6089ba61e681c010VgnVCM1000000b205a0aRCRD";"LAS AGUILAS";"AVENIDA";"V";"2";"";"";"";"";"MADRID";"MADRID";"28044";"7";"LAS AGUILAS";"10";"LATINA";"435135";"4470763";"40.38493929920335";"-3.7641963952601154";"915 120 890";"";"";"/contenido/entidadesYorganismos/CentrosCulturales"
1914;"Centro Cultural - Centro Socio Cultural Villa de Barajas";"";"Horario del centro:   C/ Botica, 7: De lunes a viernes, de 8:30 a 21:30 horas. C/ Botica, 10: De lunes a viernes, de 8:30 a 22 horas.   Sábados, domingos, festivos y agosto, cerrado   Horario de secretaría:   De lunes a jueves, de 9 a 14 horas y de 15 a 17 horas.  Fuera de este horario el centro permanecerá abierto durante la celebración de las actividades que se programen.";"3 salas de exposiciones Salón de actos / auditorio (aforo: 103 personas) 11 aulas Zona wifi 2 gimnasios";"Metro: Barajas (línea 8)";"";"1,5,6";"http://www.madrid.es/sites/v/index.jsp?vgnextchannel=bfa48ab43d6bb410VgnVCM100000171f5a0aRCRD&vgnextoid=476c1e79ee71c010VgnVCM1000000b205a0aRCRD";"BOTICA";"CALLE";"V";"7";"";"";"";"Y 10";"MADRID";"MADRID";"28042";"3";"CASCO H.BARAJAS";"21";"BARAJAS";"450962";"4480446";"40.47324881250678";"-3.5784908616003723";"913 291 803";"";"ccvillabarajas@madrid.es";"/contenido/entidadesYorganismos/CentrosCulturales"
117288;"Centro Cultural Agustín Díaz (Moncloa - Aravaca)";"";"Horario del centro:    De lunes a viernes, de 9 a 14 y de 15 a 21 horas. Sábados, domingos, festivos y agosto, cerrado.   Horario de secretaría:   De lunes a viernes, de 9:30 a 13:30 horas. Martes y jueves, de 15 a 17 horas. Julio y semana de San Isidro, de lunes a viernes, de 9:30 a 13:30 horas.  Fuera de este horario el centro permanecerá abierto durante la celebración de las actividades que se programen.";"7 aulas Auditorio Joaquín Rosado (aforo: 280 plazas) Sala de lectura Zona wifi";"Consultar los siguientes enlaces";"";"1";"http://www.madrid.es/sites/v/index.jsp?vgnextchannel=bfa48ab43d6bb410VgnVCM100000171f5a0aRCRD&vgnextoid=2d07cbf06c81c010VgnVCM1000000b205a0aRCRD";"COMANDANTE FORTEA";"PASEO";"V";"42";"";"";"";"";"MADRID";"MADRID";"28008";"1";"CASA DE CAMPO";"9";"MONCLOA-ARAVACA";"437872";"4475469";"40.42754184442827";"-3.7324112111503682";"915 487 772";"";"ccadiaz@madrid.es";"/contenido/entidadesYorganismos/CentrosCulturales"
118067;"Centro Cultural Alfredo Kraus (Fuencarral - El Pardo)";"";"Centro: de lunes a viernes de 9 a 14 y de 16 a 21.30h. Sábados de 09:30 a 13:45 y de 16:00 a 20:45h.  Secretaría: de lunes a jueves de 9:30  a 14 y de 16:30 a 18. Viernes de 9:30 a 13:30 h.  Domingo y festivos cerrado.  Agosto: De lunes a sábado de 09:00 a 13:45h y de 16:30 a 21:00h.";"Sala de exposiciones Sala de lectura y estudio 2 salones de actos / auditorio 14 aulas Cafetería Zona wifi";"Bus: 49 , 64";"Teléfono de secretaría  91 376 70 85.";"1";"http://www.madrid.es/sites/v/index.jsp?vgnextchannel=bfa48ab43d6bb410VgnVCM100000171f5a0aRCRD&vgnextoid=7337cbf06c81c010VgnVCM1000000b205a0aRCRD";"PRADERA DE VAQUERIZAS";"GLORIETA";"V";"9";"";"";"";"";"MADRID";"MADRID";"28035";"7";"MIRASIERRA";"8";"FUENCARRAL-EL PARDO";"438848";"4482487";"40.49082275610172";"-3.7216054330053647";"913 767 085";"";"ccakraus@madrid.es";"/contenido/entidadesYorganismos/CentrosCulturales"
1942;"Centro Cultural Antonio Machado (San Blas - Canillejas)";"";"Horario del centro:   De lunes domingo, de 9 a 21:30 horas ininterrumpidamente. 24 y 31 de diciembre, de 9 a 14 horas.  25 de diciembre y 1 de enero, cerrado.   Horario de secretaría:   De lunes a jueves, de 10 a 13:30 horas y de 16:15 a 17:45 horas. Viernes, de 10 a 13:30 horas.  Julio: de lunes a viernes, de 10 a 13:30 horas. Agosto: consultar el teléfono de información general del centro.    Consultar horarios de actividades en información relacionada y de talleres en el teléfono del centro.";"4 salas de exposiciones 1 auditorio (aforo 401 butacas) 1 salón de actos (aforo 182 butacas) Salas de ensayo 20 aulas Jardín exterior Zona wifi";"Metro: Alsacia (línea 2)";"Instalaciones del Centro Cultural:   Biblioteca Pública Municipal San Blas   Escuela Municipal de Música Antonio Machado";"1";"http://www.madrid.es/sites/v/index.jsp?vgnextchannel=bfa48ab43d6bb410VgnVCM100000171f5a0aRCRD&vgnextoid=cce43d0b5e71c010VgnVCM1000000b205a0aRCRD";"SAN ROMAN DEL VALLE";"CALLE";"V";"8";"";"";"";"";"MADRID";"MADRID";"28037";"4";"ARCOS";"20";"SAN BLAS-CANILLEJAS";"447255";"4474591";"40.420280457570335";"-3.621730741880216";"913 135 294";"";"ccamachado@madrid.es";"/contenido/entidadesYorganismos/CentrosCulturales"
52511;"Centro Cultural Auditorio Parque El Paraíso (San Blas - Canillejas)";"";"";"";"Metro: Simancas (línea 7)";"";"1";"http://www.madrid.es/sites/v/index.jsp?vgnextchannel=bfa48ab43d6bb410VgnVCM100000171f5a0aRCRD&vgnextoid=a395946be351c010VgnVCM2000000c205a0aRCRD";"ARCENTALES";"AVENIDA";"V";"4";"";"";"";"";"MADRID";"MADRID";"28037";"2";"HELLIN";"20";"SAN BLAS-CANILLEJAS";"447225";"4475667";"40.42997621103139";"-3.6221773579444596";"915 888 065";"";"cultusanblas@madrid.es";"/contenido/entidadesYorganismos/AuditoriosSalasConcierto"
64851;"Centro Cultural Buenavista (Salamanca)";"";"Horario del centro:   De lunes a viernes, de 9 a 21 horas. Sábados, de 10 a 21 horas. Julio, agosto y septiembre, de lunes a viernes, de 9 a 20 horas. Sábados de julio y septiembre de 10 a 20 horas. Domingos y festivos y sábados de agosto cerrado.     Horario de Secretaría:   De lunes a jueves, de 9 a 13:45 horas y de 16 a 17:45 horas. Viernes, de 9 a 14 horas. Julio: de lunes a viernes, de 9 a 14 horas. Agosto cerrada secretaría.  Fuera de este horario el centro permanecerá abierto durante la celebración de las actividades que se programen.";"Sala de exposiciones Salón de actos / auditorio (aforo 114 personas) 12 aulas Wifi Sala de conferencias (aforo 150 personas) Máquinas de vending";"Metro: Diego de León (líneas 4, 5 y 6)";"";"1,5,6";"http://www.madrid.es/sites/v/index.jsp?vgnextchannel=bfa48ab43d6bb410VgnVCM100000171f5a0aRCRD&vgnextoid=068e598d1351c010VgnVCM1000000b205a0aRCRD";"TOREROS";"AVENIDA";"V";"5";"";"";"";"";"MADRID";"MADRID";"28028";"4";"GUINDALERA";"4";"SALAMANCA";"443094";"4475922";"40.43200001609297";"-3.670904677285496";"917 240 800";"";"ccbuenavista@madrid.es";"/contenido/entidadesYorganismos/CentrosCulturales"
1943;"Centro Cultural Buero Vallejo (San Blas - Canillejas)";"";"Horario del centro:    De lunes a viernes, de 9 a 15 y de 16 a 22 horas. Sábados, domingos y festivos, de 9:30 a 14:30 y de 15:30 a 22:30 horas. Agosto, 24, 25 31 de diciembre y 1 de enero, cerrado.    Horario de secretaría:   De lunes a viernes, de 9:30 a 13:30 y de 16:30 a 18:00 horas.  Julio: de lunes a viernes, de 9 a 14 horas. Agosto, cerrado  Fuera de este horario el centro permanecerá abierto durante la celebración de las actividades que se programen.";"Salón de actos / auditorio (264 personas) Sala de exposiciones 9 aulas Zona wifi";"Metro: Torres Arias y Canillejas (línea 5)";"";"1";"http://www.madrid.es/sites/v/index.jsp?vgnextchannel=bfa48ab43d6bb410VgnVCM100000171f5a0aRCRD&vgnextoid=98953d0b5e71c010VgnVCM1000000b205a0aRCRD";"BOLTAÑA";"CALLE";"V";"27";"";"";"";"";"MADRID";"MADRID";"28022";"7";"CANILLEJAS";"20";"SAN BLAS-CANILLEJAS";"448023";"4477305";"40.44477474902185";"-3.6129105844633775";"917 411 182";"";"ccbvallejo@madrid.es";"/contenido/entidadesYorganismos/CentrosCulturales"
118317;"Centro Cultural Carril del Conde (Hortaleza)";"";"Horario del centro:    De lunes a domingos y festivos, de 9 a 22 horas.  24 y 31 de diciembre, de 9 a 15 horas. 25 de diciembre y 1 de enero, cerrado.   Horario de secretaría:   De lunes a jueves, de 9 a 14 horas y de 17 a 19 horas. Viernes, de 9 a 14 horas.  Junio, julio y agosto, de lunes a viernes, de 9 a 14 horas. Semana Santa, semana de San Isidro, úlitma semana de diciembre y primera semana de enero, de 9 a 14  horas.   Fuera de este horario el centro permanecerá abierto durante la celebración de las actividades que se programen.";"Sala de exposiciones Sala de lectura y estudio  Salón de actos / auditorio (288 butacas) 9 aulas Zona wifi Máquinas vending cafés, bebidas y sandwichs";"Metro: Arturo Soria (línea 4)";"";"1";"http://www.madrid.es/sites/v/index.jsp?vgnextchannel=bfa48ab43d6bb410VgnVCM100000171f5a0aRCRD&vgnextoid=66a7cbf06c81c010VgnVCM1000000b205a0aRCRD";"CARRIL DEL CONDE";"CALLE";"V";"57";"";"";"";"";"MADRID";"MADRID";"28043";"3";"CANILLAS";"16";"HORTALEZA";"444520";"4479119";"40.46089499555313";"-3.654366821391548";"917 161 240";"";"cccarrilconde@madrid.es";"/contenido/entidadesYorganismos/CentrosCulturales"
1945;"Centro Cultural Casa de Vacas (Retiro)";"";"Horario del centro   De lunes a domingos, de octubre a marzo, de 10 a 21 horas.  De lunes a domingos, de abril a septiembre, de 10 a 21:30 horas.  25 de diciembre y 1 de enero, cerrado.    Horario de secretaría:   De lunes a viernes, de 10 a 14 horas.   Horario de información:    De lunes a domingo, de 10 a 14 y de 16 a 20 horas.";"Sala de exposiciones Salón de actos / auditorio / teatro (aforo 140 personas) Terraza exterior.";"Metro: Retiro (línea 2)";"";"1";"http://www.madrid.es/sites/v/index.jsp?vgnextchannel=bfa48ab43d6bb410VgnVCM100000171f5a0aRCRD&vgnextoid=35e53d0b5e71c010VgnVCM1000000b205a0aRCRD";"COLOMBIA";"PASEO";"V";"1";"";"";"";"";"MADRID";"MADRID";"28009";"5";"LOS JERONIMOS";"3";"RETIRO";"441967";"4474495";"40.41906571939961";"-3.684053112760816";"914 092 336";"";"cccasadevacas@madrid.es";"/contenido/entidadesYorganismos/SalasExposiciones"
1925;"Centro Cultural Casa del Reloj (Arganzuela)";"";"Horario del centro:    De lunes a sábados, de 9 a 21 horas. Domingos, de 9 a 14 horas.  Agosto cerrado.   Horario de secretaría:   De lunes a jueves, de 10 a 13 y de 17 a 19 horas. Viernes, de 9 a 14 horas Semana de San Isidro: de lunes a viernes, de 9 a 14 horas.   Fuera de este horario el centro permanecerá abierto durante la celebración de las actividades que se programen.";"2 Salas de exposiciones Auditorio: (aforo 265 y 492 personas). 14 aulas. Cafetería.";"Metro: Legazpi (líneas 3, 6)";"";"1";"http://www.madrid.es/sites/v/index.jsp?vgnextchannel=bfa48ab43d6bb410VgnVCM100000171f5a0aRCRD&vgnextoid=8b063d0b5e71c010VgnVCM1000000b205a0aRCRD";"CHOPERA";"PASEO";"V";"6";"";"";"";"";"MADRID";"MADRID";"28045";"3";"CHOPERA";"2";"ARGANZUELA";"440559";"4471798";"40.39466755008527";"-3.700396761468562";"915 886 118 / 915 886 299";"";"crelojarganzuela@madrid.es";"/contenido/entidadesYorganismos/CentrosCulturales"
4551096;"Centro Cultural Ciudad Pegaso (San Blas - Canillejas)";"";"Horario del centro:    De lunes a domingo, de 9:30 a 14:30 y de 16:30 a 21:30 horas. 24, 25, 31 de diciembre y 1 de enero, cerrado.    Horario de secretaría:   De lunes a jueves, de 10 a 12 horas y de 16:30 a 19 horas. Viernes, de 10 a 12 y de 16:30 a 18 horas.   Fuera de este horario el centro permanecerá abierto durante la celebración de las actividades que se programen.";"Salas de exposiciones Sala de lectura y estudio Salón de actos / auditorio (aforo 132 butacas) 4 aulas Zona wifi";"Consulta los siguientes enlaces:";"";"1";"http://www.madrid.es/sites/v/index.jsp?vgnextchannel=bfa48ab43d6bb410VgnVCM100000171f5a0aRCRD&vgnextoid=07f63190712b1110VgnVCM1000000b205a0aRCRD";"SEPTIMA";"AVENIDA";"V";"11";"";"";"";"";"MADRID";"MADRID";"28022";"6";"REJAS";"20";"SAN BLAS-CANILLEJAS";"449281";"4477704";"40.44844757572015";"-3.598099871155595";"917 415 852";"";"cccpegaso@madrid.es";"/contenido/entidadesYorganismos/CentrosCulturales"
11876732;"Centro Cultural Clara del Rey - Museo ABC (Centro)";"";"Horario del centro:   De lunes a sábado, de 9 a 21 horas.  Del 24 de junio al 31 de julio: de lunes a viernes, de 9 a 14 horas.  Domingos, festivos y agosto cerrado.   Horario de secretaría:   De lunes a jueves, de 9 a 14 horas y de 16 A 18 horas. Viernes, de 9 a 14. Del 24 de junio al 31 de julio, de lunes a viernes, de 9 a 14 horas.  Fuera de este horario el centro permanecerá abierto durante la celebración de las actividades que se programen.";"6 Aulas Auditorio (aforo 55 personas) Zona wifi Sala de exposiciones. Horario:  Enero a junio y octubre a diciembre, de lunes a sábados de 9 a 21 horas. Domingos cerrado. Julio y septiembrte, de lunes a viernes de 9 a 19:30 horas. Sábados y domingos cerrado.";"Metro: Ventura Rodríguez (línea 3), Plaza de España (líneas 3, 10), San Bernardo (líneas 2, 4)";"";"1";"http://www.madrid.es/sites/v/index.jsp?vgnextchannel=bfa48ab43d6bb410VgnVCM100000171f5a0aRCRD&vgnextoid=b8afb908d1825810VgnVCM1000001d4a900aRCRD";"AMANIEL";"CALLE";"V";"29";"";"";"";"";"MADRID";"MADRID";"28015";"5";"UNIVERSIDAD";"1";"CENTRO";"439813";"4475439";"40.42741340671151";"-3.7095381101739444";"915 222 823";"";"ccclararey@madrid.es";"/contenido/entidadesYorganismos/CentrosCulturales"
5498725;"Centro Cultural Eduardo Úrculo (Tetuán)";"";"Horario del centro:   De lunes a sábado, de 9:30 a 21:30 horas.  Domingos, festivos y agosto cerrado.   Horario de secretaría:   De lunes a jueves, de 9:30 a 13:30 horas y de 16:30 A 18 horas. Viernes, de 9:30 a 13:30. Julio: de lunes a viernes, de 9:30 a 13:30 horas.  Fuera de este horario el centro permanecerá abierto durante la celebración de las actividades que se programen.";"2 salas de exposiciones. 1 auditorio (aforo 425, incluidos 5 espacios para sillas de ruedas). Salas de ensayo, actualmente ocupadas por compañías residentes. 12 aulas. Zona wifi";"Metro: Ventilla (línea 9)";"";"1,6";"http://www.madrid.es/sites/v/index.jsp?vgnextchannel=bfa48ab43d6bb410VgnVCM100000171f5a0aRCRD&vgnextoid=f8f9338588355210VgnVCM1000000b205a0aRCRD";"DONOSO";"PLAZA";"V";"5";"";"";"";"";"MADRID";"MADRID";"28029";"4";"ALMENARA";"6";"TETUAN";"440862";"4480048";"40.46900764611639";"-3.697595691925329";"917 337 249";"";"cceurculo@madrid.es";"/contenido/entidadesYorganismos/CentrosCulturales"
11979985;"Centro Cultural El Plantío (Moncloa - Aravaca)";"";"Horario del centro:   De lunes a viernes, de 9 a 21 horas.  Sábados, domingos, festivos, julio y agosto cerrado.   Horario de secretaría:   De lunes a jueves, de 9 a 14 horas.  Fuera de este horario el centro permanecerá abierto durante la celebración de las actividades que se programen";"2 aulas para talleres";"Consultar los siguientes enlaces";"";"1";"http://www.madrid.es/sites/v/index.jsp?vgnextchannel=bfa48ab43d6bb410VgnVCM100000171f5a0aRCRD&vgnextoid=45ef9eebdd647810VgnVCM2000001f4a900aRCRD";"JOSE LOMBANA IGLESIAS";"CALLE";"V";"4";"";"";"";"";"MADRID";"MADRID";"28023";"6";"EL PLANTIO";"9";"MONCLOA-ARAVACA";"430105";"4480358";"40.47096731070447";"-3.8245164150407103";"913 644 191";"";"ccplantio@madrid.es";"/contenido/entidadesYorganismos/CentrosCulturales"
1939;"Centro Cultural El Pozo del tío Raimundo (Puente de Vallecas)";"";"Horario del centro:    De lunes a viernes, de 9 a 22 horas. Sábados, de 10 a 14 y de 16 a 20 horas. Domingos y festivos, de 10 a 14 horas. Julio, de lunes a viernes de 9 a 15 horas. Sábados, domingos y festivos, de 10 a 14 horas. Agosto, cerrado.   Horario de secretaría:   De lunes a viernes, de 9 a 13:45 y de 17 a 18:45 horas. Julio: de lunes a viernes, de 9 a 13:45 horas..   Fuera de este horario el centro permanecerá abierto durante la celebración de las actividades que se programen.";"Sala de exposiciones Sala de lectura y estudio Salón de actos / auditorio (Aforo teatro: 363 personas) Salas de ensayo 11 aulas Cafetería (en el Centro de Mayores el Pozo) Biblioteca Municipal y Centro Municipal de Mayores Zona wifi";"Cercanías Renfe: El Pozo (línea C2).";"Consulte normas de acceso a los teatros en información relacionada.";"1";"http://www.madrid.es/sites/v/index.jsp?vgnextchannel=bfa48ab43d6bb410VgnVCM100000171f5a0aRCRD&vgnextoid=add63d0b5e71c010VgnVCM1000000b205a0aRCRD";"GLORIETAS";"AVENIDA";"V";"19";"";"";"";"";"MADRID";"MADRID";"28053";"1";"ENTREVIAS";"13";"PUENTE DE VALLECAS";"443976";"4469457";"40.37381624358889";"-3.6599325731670977";"917 866 644";"";"ccptioraimundo@madrid.es";"/contenido/entidadesYorganismos/CentrosCulturales"
11848432;"Centro Cultural Emilia Pardo Bazán (Salamanca)";"";"Todos los horarios del Centro en más información.";"Sala de exposiciones Sala de trabajo y lectura (aforo 63 plazas) Salón de actos / auditorio (aforo 80 plazas) Zona wifi Sala polivalente (aforo 35 personas) Máquinas de café y refrescos";"Metro: Colón (línea 4), Serrano (línea 4)  Aparcamiento: Colón (2), Plaza de Colón";"Horario del centro:   De lunes a viernes, de 8:15 a 21:45 horas. Sábados y domingos, de 10:15 a 21:45 horas Julio, de lunes a domingo, de 8:15 a 20:45 horas Agosto de lunes a domingo, de 8:15 a 19:45 horas Septiembre de lunes a domingo, de 8:15 a 20:45 horas Fetivos cerrado   Horario de secretaría:   De lunes a jueves, de 9 a 14 horas y de 16 a 18 horas. Viernes de 9 a 14 horas. Julio de lunes a viernes, de 9 a 14 horas. Agosto: Cerrado  Fuera de este horario el centro permanecerá abierto durante la celebración de las actividades que se programen.";"1";"http://www.madrid.es/sites/v/index.jsp?vgnextchannel=bfa48ab43d6bb410VgnVCM100000171f5a0aRCRD&vgnextoid=dc8d531521b74810VgnVCM1000001d4a900aRCRD";"GOYA";"CALLE";"V";"1";"";"";"";"";"MADRID";"MADRID";"28001";"1";"RECOLETOS";"4";"SALAMANCA";"441502";"4475253";"40.42585800515975";"-3.689601594290468";"913 052 081";"";"ccemiliapardobazan@madrid.es";"/contenido/entidadesYorganismos/SalasEstudioLectura"
1931;"Centro Cultural Federico Chueca (Hortaleza)";"";"Horario del centro:   De lunes a viernes, de 9 a 22 horas.  24 y 31 de diciembre, de 9 a 15 horas. Sábados, domingos, festivos, julio, agosto, 25 de diciembre y 1 de enero, cerrado.   Horario de secretaría:   De lunes a jueves, de 9 a 14 horas y de 17 a 19 horas. Viernes, de 9 a 14 horas.  Junio, de lunes a viernes, de 9 a 14 horas. Semana Santa, semana de San Isidro, úlitma semana de diciembre y primera semana de enero, de 9 a 14  horas.   Fuera de este horario el centro permanecerá abierto durante la celebración de las actividades que se programen.";"Salón de actos / auditorio: aforo completo 114 plazas. 3 aulas Zona wifi";"Consultar los siguientes enlaces:";"";"1";"http://www.madrid.es/sites/v/index.jsp?vgnextchannel=bfa48ab43d6bb410VgnVCM100000171f5a0aRCRD&vgnextoid=90573d0b5e71c010VgnVCM1000000b205a0aRCRD";"BENITA AVILA";"CALLE";"V";"23";"";"";"";"";"MADRID";"MADRID";"28043";"3";"CANILLAS";"16";"HORTALEZA";"444844";"4479629";"40.465513265035874";"-3.650585652034587";"913 000 389";"";"ccfchueca@madrid.es";"/contenido/entidadesYorganismos/CentrosCulturales"
4703628;"Centro Cultural Fernando Lázaro Carreter (Carabanchel)";"";"Horario del centro:   De lunes a sábado, de 8:45 a 21 horas.Sábados, de 9:45 a 21 horas. Domingos, de 11:45 a 14:45 horas.  Festivos y agosto cerrado.   Horario de secretaría:   De lunes a jueves, de 10 a 13 horas y de 16:30 A 18 horas. Viernes, de 10 a 13 horas.. Julio: de lunes a viernes, de 10 a 13 horas.  Fuera de este horario el centro permanecerá abierto durante la celebración de las actividades que se programen.";"Sala de exposiciones Sala de lectura y estudio Salón de actos / auditorio (aforo 238 personas) 10 aulas Zona wifi";"Metro: Marqués de Vadillo (línea 5), Plaza Elíptica (línea 6 y 11)";"";"1";"http://www.madrid.es/sites/v/index.jsp?vgnextchannel=bfa48ab43d6bb410VgnVCM100000171f5a0aRCRD&vgnextoid=340ed2d6fe9a6110VgnVCM1000000b205a0aRCRD";"VERDAD";"CALLE";"V";"29";"";"";"";"";"MADRID";"MADRID";"28019";"2";"OPAÑEL";"11";"CARABANCHEL";"439136";"4471474";"40.39164455403764";"-3.717137582860074";"914 690 895";"";"cclazaro@madrid.es";"/contenido/entidadesYorganismos/CentrosCulturales"
1954;"Centro Cultural Fernando de los Ríos (Latina)";"Información general en el teléfono: 91 719 89 93. Correo electrónico: ccfrios@madrid.es  Información sobre cursos y talleres en los siguientes enlaces:   Plataforma cursos y talleres Ayuntamiento de Madrid.  Trámites cursos y talleres Ayuntamiento de Madrid.";"Horario de verano: durante los meses de julio, agosto y septiembre, de 9 a 21 horas. Cerrado sábados y domingos.   Horarios de apertura:  Lunes a Viernes de 9 a 21:30 horas. Sábados de 9 a 13:30 horas y de 16 a 20:30 horas  Horarios de atención al público:  Lunes a Jueves: de 8:30 a 14 horas y de 16 a 18:30 h. Viernes de 8:30 a 14:30 horas.";"Sala de exposiciones. Salón de actos y auditorio con aforo máximo para 194 personas). 11 aulas. Cafetería. Zona WIFI.";"Autobuses de la EMT. Líneas: 25, 31 y 138.";"En la misma sede:   Biblioteca Pública Municipal de Aluche. Sala de Estudio Fernando de los Ríos de la Biblioteca.";"1,6";"http://www.madrid.es/sites/v/index.jsp?vgnextchannel=bfa48ab43d6bb410VgnVCM100000171f5a0aRCRD&vgnextoid=3d973d0b5e71c010VgnVCM1000000b205a0aRCRD";"CAMARENA";"CALLE";"V";"10";"";"";"";"B";"MADRID";"MADRID";"28047";"4";"ALUCHE";"10";"LATINA";"435819";"4471933";"40.39552931214334";"-3.7562667464373223";"917 198 930 / 917 198 931 / 917 198 993";"";"ccfrios@madrid.es";"/contenido/entidadesYorganismos/CentrosCulturales"
12205092;"Centro Cultural Fuente de San Pedro - Valderrivas (Vicálvaro)";"";"Horario del centro:   De lunes a viernes de 9 a 21:30 horas. Sábados, domingos y festivos de 9 a 21:00 horas. 24, 25, 31 de diciembre y 1, 6 de enero, cerrado.   Horario de secretaría:   De lunes a jueves de 11 a 15 horas y de 16:30 a 18:30 horas. Viernes de 10 a 15 horas. Julio, de lunes a viernes, de 8:00 a 14:00 horas.";"Sala de exposiciones Sala de estudio y lectura*. (Aforo: 56 puestos) Sala para trabajos en grupo* (Aforo: 24 plazas)   *Cierre de ambas salas a las 21 horas de lunes a viernes y a las 20:30 sábados, domingos y festivos   Salón de actos / Auditorio (Aforo: 176 personas).  Zona wifi.";"";"";"1";"http://www.madrid.es/sites/v/index.jsp?vgnextchannel=bfa48ab43d6bb410VgnVCM100000171f5a0aRCRD&vgnextoid=67d82728d0f1c810VgnVCM2000001f4a900aRCRD";"TITANIO";"CALLE";"V";"5";"";"";"";"";"MADRID";"MADRID";"28032";"3";"VALDERRIVAS";"19";"VICALVARO";"448965";"4472570";"40.40218085880392";"-3.60141148450391";"917 753 200";"";"ccfuentesanpedro@madrid.es";"/contenido/entidadesYorganismos/CentrosCulturales"
1921;"Centro Cultural Galileo (Chamberí)";"El edificio se comenzó a construir en 1889 para ser usado como cocheras de las pompas fúnebres y posteriormente como tanatorio. Ocupó gran parte de una manzana siguiendo la alineación de las calles Galileo, Fernando el Católico y Blasco de Garay. Fue el edificio de la Sociedad de pompas Fúnebres, conocido como la funeraria Galileo. Cuando en 1986 fue convertido en Centro Cultural, desapareció el último vestigio fúnebre del Distrito. Tanto la disposición de los pabellones iniciales, dedicados en planta baja a cuadras y cocheras, como la estética arquitectónica, siguen las pautas marcadas por el lenguaje neomudéjar, resuelto sobre la base de muros de fábrica de ladrillo visto con sobria decoración, en una composición horizontal de dos plantas remarcada por una cornisa perimetral corrida y un impostado sobre ménsulas, interrumpido, sin embargo por salientes apilastrados que superponen en el trazado una secuencia de paños verticales en los que se abren los huecos. La monotonía repetitiva de las fachadas se rompe en la solución del chaflán, que conforma una suerte de achatado torreón, y en el centro de las mismas, donde se sitúan los grandes portones de acceso en cuerpos rematados por espadaña y perforados por vanos termales. Arquitecto, Julio Martínez-Zapata Rodríguez: 1898 (P) 1898-1999 (O). Ampliación: Julio Martínez-Zapata Rodríguez: 1905 (P) 1905-1907 (O). Adaptación para Centro Cultural: Álvaro y Luis Hernández Gómez y María Victoria Haendler Mas : 1985 (P) 1986-1987 (O). (Fuente: Guía de Arquitectura y Urbanismo de Madrid. Fundación COAM).";"Horario del Centro.   De lunes a domingos, de 8 a 21 horas.    Horario de Secretaría:   Lunes y jueves, de 9 a 14 y de 15:30 a 16:30 horas. Del 15 de junio al 15 de septiembre, de lunes a jueves de 9 a 14 horas.  Fuera de este horario el centro permanecerá abierto durante la celebración de las actividades que se programen.  Cerrado:   1 y 6 de enero. 1 y 2 de mayo. 15 de agosto. 12 de octubre. 25 de diciembre";"Espacios   Centro cultural y patio Espacio Anexo Teatro Quique San Francisco Sala de ensayos Mario Vaquerizo incluye dos salas:   Sala de dirigida a grupos de música de dos a diez integrantes.  Sala destinada a músicos solistas que necesiten un espacio para realizar ensayos     Servicios   2 Salas de exposiciones 1 Sala de lectura y estudio 1 Salón de actos / Auditorio (Aforo 175 personas) Aulas Wifi";"Metro: Quevedo (línea 2)";"";"1";"http://www.madrid.es/sites/v/index.jsp?vgnextchannel=bfa48ab43d6bb410VgnVCM100000171f5a0aRCRD&vgnextoid=30181e79ee71c010VgnVCM1000000b205a0aRCRD";"GALILEO";"CALLE";"V";"39";"";"";"";"";"MADRID";"MADRID";"28015";"2";"ARAPILES";"7";"CHAMBERI";"439741";"4476139";"40.433719454283505";"-3.7104468992841753";"915 913 901";"";"ccgalileo@madrid.es";"/contenido/entidadesYorganismos/CentrosCulturales"
70243;"Centro Cultural Gloria Fuertes (Barajas)";"";"Horario del centro:   De lunes a viernes, de 9 a 21 horas.  Sábados, domingos y festivos cerrado.   Horario de secretaría:   De lunes a viernes, de 9 a 14 horas y de 15 a 17 horas.   Fuera de este horario el centro permanecerá abierto durante la celebración de las actividades que se programen.";"Sala de exposiciones 6 Aulas Zona wifi";"Consulta los siguientes enlaces";"";"1";"http://www.madrid.es/sites/v/index.jsp?vgnextchannel=bfa48ab43d6bb410VgnVCM100000171f5a0aRCRD&vgnextoid=2e5068540e41c010VgnVCM2000000c205a0aRCRD";"LOGROÑO";"AVENIDA";"V";"179";"";"";"";"";"MADRID";"MADRID";"28042";"5";"CORRALEJOS";"21";"BARAJAS";"449666";"4479054";"40.4606308732073";"-3.59366944150524";"913 120 243";"";"ccgloriafuertes@madrid.es";"/contenido/entidadesYorganismos/CentrosCulturales"
1930;"Centro Cultural Hortaleza";"";"Horario del centro:    De lunes a domingos y festivos, de 9 a 22 horas.  24 y 31 de diciembre, de 9 a 15 horas. 25 de diciembre y 1 de enero, cerrado.   Horario de secretaría:   De lunes a jueves, de 9 a 14 horas y de 17 a 19 horas. Viernes, de 9 a 14 horas.  Junio, julio y agosto, de lunes a viernes, de 9 a 14 horas. Semana Santa, semana de San Isidro, úlitma semana de diciembre y primera semana de enero, de 9 a 14  horas.   Fuera de este horario el centro permanecerá abierto durante la celebración de las actividades que se programen.";"Sala de exposiciones Sala de lectura y estudio Salón de actos / auditorio (aforo 122 personas) Salas de ensayo 5 aulas Zona wifi Máquinas vending de café, bebidas y sandwiches";"Metro: Parque de Santa María (línea 4)";"";"1";"http://www.madrid.es/sites/v/index.jsp?vgnextchannel=bfa48ab43d6bb410VgnVCM100000171f5a0aRCRD&vgnextoid=86381e79ee71c010VgnVCM1000000b205a0aRCRD";"SANTA VIRGILIA";"CALLE";"V";"15";"";"";"";"";"MADRID";"MADRID";"28033";"4";"PINAR DEL REY";"16";"HORTALEZA";"445577";"4480880";"40.47682410775741";"-3.6420497457238";"913 821 493";"";"cchortaleza@madrid.es";"/contenido/entidadesYorganismos/CentrosCulturales"
1929;"Centro Cultural Huerta de la Salud (Hortaleza)";"";"Horario del centro:    De lunes a sábado, de 10 a 14 y de 16:30 a 20:30 horas. Julio, agosto, Semana Santa, semana San Isidro y Navidad, de lunes a viernes de 8 a 17 horas. 24 y 31 de diciembre, de 10 a 14 horas.  25 diciembre y 1 enero, cerrado.  Fuera de este horario, el centro permanecerá abierto durante la celebración de las actividades que se programen.";"Salón de actos / Auditorio: aforo completo 114 plazas Zona wifi";"Metro: San Lorenzo (línea 4)";"Silo de Hortaleza    Lunes de 17 a 21 horas. De martes a sábado de 10 a 14 horas  y de 17 a 21 horas. Domingos y festivos de 10 a 14 horas. 24 de diciembre y 1 de enero, de 10 a 14 horas. Sábados, domingos, festivos de agosto y 25 de diciembre y 1 de enero, cerrado.";"1";"http://www.madrid.es/sites/v/index.jsp?vgnextchannel=bfa48ab43d6bb410VgnVCM100000171f5a0aRCRD&vgnextoid=dc581e79ee71c010VgnVCM1000000b205a0aRCRD";"MAR DE LAS ANTILLAS";"CALLE";"V";"8";"";"";"";"";"MADRID";"MADRID";"28033";"4";"PINAR DEL REY";"16";"HORTALEZA";"445279";"4480662";"40.47484735634347";"-3.645543866498554";"913 825 309";"";"cultuhortaleza@madrid.es";"/contenido/entidadesYorganismos/CentrosCulturales"
6017747;"Centro Cultural José Luis López Vázquez (San Blas - Canillejas)";"";"Horario del centro:    De lunes a domingo, de 9 a 14 y de 15 a 21 horas. 24, 25, 31 de diciembre y 1 de enero, cerrado.   Horario de secretaría:   De lunes a jueves, de 9 a 14 horas y de 15 a 18 horas. Viernes, de 9 a 14 horas.  Julio: de lunes a viernes, de 9 a 14 horas.  Fuera de este horario el centro permanecerá abierto durante la celebración de las actividades que se programen.";"Sala de exposiciones Sala de lectura y estudio  Salón de actos / auditorio (aforo: 194 butacas) 12 aulas Zona wifi";"Consultar los siguientes enlaces:";"";"2";"http://www.madrid.es/sites/v/index.jsp?vgnextchannel=bfa48ab43d6bb410VgnVCM100000171f5a0aRCRD&vgnextoid=b790e37de110f210VgnVCM1000000b205a0aRCRD";"FEBRERO";"CALLE";"V";"4";"";"";"";"";"MADRID";"MADRID";"28022";"6";"REJAS";"20";"SAN BLAS-CANILLEJAS";"451431";"4477510";"40.446826729909155";"-3.5727382893523254";"913 293 900";"";"ccjllopezvazquez@madrid.es";"/contenido/entidadesYorganismos/CentrosCulturales"
142944;"Centro Cultural José Luis Sampedro (Latina)";"Información general en el teléfono: 91 526 78 20. Correo electrónico: cclucero@madrid.es  Información sobre cursos y talleres en los siguientes enlaces:   Plataforma cursos y talleres Ayuntamiento de Madrid.  Trámites cursos y talleres Ayuntamiento de Madrid.";"Horario de verano:    Cerrado del 1 al 24 de agosto.   Julio, agosto y septiembre, de 9 a 21 horas. Cerrado sábados y domingos.   Horarios de apertura y atención al público:  Lunes a viernes de 9 a 21:30 horas. Sábados de 9 a 13:30 horas.";"4 salas de ensayos. Sala de exposiciones. Sala de lectura y estudio.  Salón de actos y auditorio.  6 aulas. Zona WIFI. 2 gimnasios.";"Metro: Línea 6. Estaciones: Lucero y Laguna.  Autobuses de la EMT: Línea 55.  Cercanías RENFE: Línea C5. Estación: Laguna.";"En la misma sede está ubicada la Sala de Estudio.";"1";"http://www.madrid.es/sites/v/index.jsp?vgnextchannel=bfa48ab43d6bb410VgnVCM100000171f5a0aRCRD&vgnextoid=bd3fba61e681c010VgnVCM1000000b205a0aRCRD";"CASTROSERNA";"CALLE";"V";"4";"";"";"";"";"MADRID";"MADRID";"28047";"3";"LUCERO";"10";"LATINA";"436432";"4472601";"40.40159394334669";"-3.749110841406562";"915 267 820 / 915 267 821";"";"cclucero@madrid.es";"/contenido/entidadesYorganismos/CentrosCulturales"
1919;"Centro Cultural Juan Genovés (Moncloa - Aravaca)";"";"Horario del centro:    De lunes a viernes, de 9 a 15 y de 15:30 a 21:30 horas.  Sábados, domingos, festivos y agostro, cerrado.   Horario de secretaría:   De lunes a viernes, de 9 a 14 horas. Martes y jueves de 17:30 a 19 horas. Del 16 de junio al 29 de agosto: de lunes a viernes, de 9 a 14 horas.  Fuera de este horario el centro permanecerá abierto durante la celebración de las actividades que se programen.";"Sala de exposiciones  7 aulas  Auditorio: aforo 300 butacas";"Consultar los siguientes enlaces";"";"1";"http://www.madrid.es/sites/v/index.jsp?vgnextchannel=bfa48ab43d6bb410VgnVCM100000171f5a0aRCRD&vgnextoid=13153d0b5e71c010VgnVCM1000000b205a0aRCRD";"CA&amp;Ntilde;O";"TRAVESIA";"V";"5";"";"";"";"";"MADRID";"MADRID";"28023";"7";"ARAVACA";"9";"MONCLOA-ARAVACA";"433328";"4478964";"40.45867841791346";"-3.7863499043313373";"917 401 596";"";"ccjgenoves@madrid.es";"/contenido/entidadesYorganismos/CentrosCulturales"
1913;"Centro Cultural Juan Gris (Moncloa - Aravaca)";"";"Horario del centro:   De lunes a viernes, de 9 a 14:30 horas y de 15:30 a 21 horas. Sábados lectivos, de 9:30 a 14 horas.  Domingos, festivos y agosto cerrado.   Horario de secretaría:   Lunes y martes, de 9 a 14 horas y de 15:30 A 17:30 horas. De miércoles a viernes, de 9 a 14 horas.  Julio: lunes y martes, de 9 a 14 horas y de 15 A 16 horas. De miércoles a viernes, de 9 a 14 horas.   Fuera de este horario el centro permanecerá abierto durante la celebración de las actividades que se programen.";"3 aulas. Zona wifi.";"Metro: Francos Rodríguez (línea 7).";"";"0";"http://www.madrid.es/sites/v/index.jsp?vgnextchannel=bfa48ab43d6bb410VgnVCM100000171f5a0aRCRD&vgnextoid=79a81e79ee71c010VgnVCM1000000b205a0aRCRD";"FRANCOS RODRIGUEZ";"CALLE";"V";"100";"";"";"";"";"MADRID";"MADRID";"28039";"4";"VALDEZARZA";"9";"MONCLOA-ARAVACA";"439610";"4478821";"40.45786266126019";"-3.712247606973967";"914 507 865";"";"ccjuangris@madrid.es";"/contenido/entidadesYorganismos/CentrosCulturales"
1917;"Centro Cultural La Vaguada (Fuencarral - El Pardo)";"";"Centro: De lunes a viernes de 08:00 a 22:00h y sábados de 09:30 a 21:30h. Secretaría: de lunes a jueves de 9 a 14 y de 16 a 19 horas.    Agosto: De lunes a viernes de 09:00 a 16:30 horas.";"Sala de exposiciones Salón de actos / auditorio 7 aulas Zona wifi";"Metro: Barrio del Pilar (línea 9). Bus: 49 , 83 , 128 , 132 , 137";"";"1";"http://www.madrid.es/sites/v/index.jsp?vgnextchannel=bfa48ab43d6bb410VgnVCM100000171f5a0aRCRD&vgnextoid=09691e79ee71c010VgnVCM1000000b205a0aRCRD";"MONFORTE DE LEMOS";"AVENIDA";"V";"38";"";"";"";"";"MADRID";"MADRID";"28029";"4";"EL PILAR";"8";"FUENCARRAL-EL PARDO";"439894";"4481167";"40.47900813206291";"-3.709138377702435";"915 886 883";"";"cclavaguada@madrid.es";"/contenido/entidadesYorganismos/CentrosCulturales"
4606802;"Centro Cultural Las Californias (Retiro)";"";"Horario del centro:    De lunes a viernes, de 9 a 14 y de 16 a 22 horas. Sábados, de 10 a 14 y de 16 a 21 horas. Domingos y festivos y agosto, cerrado.   Horario de secretaría:   De lunes a viernes, de 9 a 14 horas.  Fuera de este horario el centro permanecerá abierto durante la celebración de las actividades que se programen.";"Sala de lectura y estudio. Salón de actos / auditorio (aforo 80 personas). 4 aulas. Zona wifi. 2 máquinas de vending. Atención básica en lengua de signos.";"Metro: Puente de Vallecas (línea 1) , Mendez Álvaro (línea 6)";"";"1";"http://www.madrid.es/sites/v/index.jsp?vgnextchannel=bfa48ab43d6bb410VgnVCM100000171f5a0aRCRD&vgnextoid=a6c875993dc63110VgnVCM1000000b205a0aRCRD";"LUIS PEIDRO";"CALLE";"V";"2";"";"";"";"";"MADRID";"MADRID";"28007";"2";"ADELFAS";"3";"RETIRO";"442812";"4472042";"40.397021560779024";"-3.6738766514153163";"915 016 942";"";"cclascalifornias@madrid.es";"/contenido/entidadesYorganismos/CentrosCulturales"
1918;"Centro Cultural Lavapiés (Centro)";"";"Horario del centro:   De lunes a sábado, de 9 a 14 horas y de 16:30 a 21:15 horas.  Julio y septiembre: de lunes a viernes, de 9 a 14 horas. Domingos, festivos,agosto y días 24 y 31 de diciembre, cerrado.   Horario de secretaría:   De lunes a jueves, de 9 a 14 horas y de 16 A 18 horas. Viernes, de 9 a 14. Julio: de lunes a viernes, de 9 a 14 horas.  Fuera de este horario el centro permanecerá abierto durante la celebración de las actividades que se programen.";"Salón de actos / auditorio (aforo 80 personas) 6 aulas Zona wifi";"Metro: Lavapiés (línea 3).";"";"1";"http://www.madrid.es/sites/v/index.jsp?vgnextchannel=bfa48ab43d6bb410VgnVCM100000171f5a0aRCRD&vgnextoid=5f891e79ee71c010VgnVCM1000000b205a0aRCRD";"OLIVAR";"CALLE";"V";"46";"";"";"";"";"MADRID";"MADRID";"28012";"2";"EMBAJADORES";"1";"CENTRO";"440474";"4473465";"40.40967898937472";"-3.7015569791252063";"915 060 712";"";"cclavapies@madrid.es";"/contenido/entidadesYorganismos/CentrosCulturales"
1938;"Centro Cultural Lope de Vega (Puente de Vallecas)";"";"Horario del centro:    De lunes a viernes, de 9 a 22 horas. Julio: de lunes a viernes, de 9 a 15 horas.  Sábados, domingos, festivos y agosto, cerrado.   Horario de secretaría:   De lunes a viernes, de 9 a 13:45 y de 17 a 18:45 horas.  Julio: de lunes a viernes, de 9 a 13:45 horas..   Fuera de este horario el centro permanecerá abierto durante la celebración de las actividades que se programen.";"Sala de exposiciones Sala de lectura y estudio (Aforo: 41 personas) Salón de actos / auditorio (Aforo: 260 personas) Salas de ensayo 7 Aulas Zona wifi";"Cercanías Renfe: Asamblea de Madrid-Entrevías (línea C2).";"Consulte normas de acceso a los teatros en información relacionada.";"1";"http://www.madrid.es/sites/v/index.jsp?vgnextchannel=bfa48ab43d6bb410VgnVCM100000171f5a0aRCRD&vgnextoid=4a273d0b5e71c010VgnVCM1000000b205a0aRCRD";"CONCEJO DE TEVERGA";"CALLE";"V";"1";"";"";"";"";"MADRID";"MADRID";"28053";"1";"ENTREVIAS";"13";"PUENTE DE VALLECAS";"442974";"4470850";"40.386296991431074";"-3.671858416387963";"917 570 580";"";"cclopedevega@madrid.es";"/contenido/entidadesYorganismos/CentrosCulturales"
1973;"Centro Cultural Los Rosales (Villaverde)";"";"El horario del Centro Cultural Los Rosales es de lunes a viernes de 8 a 22 h ininterrumpidamente y los sábados de 9:30 a 13:30 h.  Horario de Secretaría:    Horario de mañana: de lunes a viernes de 9:30 a 13:30 h. Horario de tarde: de lunes a jueves de 17 a 19 h. Durante el mes de julio el horario será de 9 a 14 h.";"Sala de exposiciones Sala de lectura y estudio Salón de actos / auditorio (aforo): 193 butacas + 4 movilidad reducida. 9 aulas Zona Wifi";"Cercanías Renfe: Villaverde Bajo (línea C3 y C4).";"";"1";"http://www.madrid.es/sites/v/index.jsp?vgnextchannel=bfa48ab43d6bb410VgnVCM100000171f5a0aRCRD&vgnextoid=a5b91e79ee71c010VgnVCM1000000b205a0aRCRD";"LOS ROSALES";"AVENIDA";"V";"133";"";"";"";"";"MADRID";"MADRID";"28021";"3";"BUTARQUE";"17";"VILLAVERDE";"442482";"4466908";"40.3507522003116";"-3.677296127414198";"917 109 273";"";"cclosrosales@madrid.es";"/contenido/entidadesYorganismos/CentrosCulturales"
6469004;"Centro Cultural Mercado de Ibiza (Retiro)";"";"Horario del centro:   De lunes a viernes, de 9 a 14 horas y de 16:30 a 20:30 horas. Sábados, de 9 a 14 horas. Domingos, festivos y agosto cerrado.   Horario de secretaría:   De lunes a viernes, de 9:00 a 14 horas.   Fuera de este horario el centro permanecerá abierto durante la celebración de las actividades que se programen.";"2 salas de lectura y estudio 6 aulas Zona wifi";"Metro: Ibiza (línea 9)";"";"1";"http://www.madrid.es/sites/v/index.jsp?vgnextchannel=bfa48ab43d6bb410VgnVCM100000171f5a0aRCRD&vgnextoid=dbeab973f50e7310VgnVCM1000000b205a0aRCRD";"IBIZA";"CALLE";"V";"8";"1ª";"";"";"";"MADRID";"MADRID";"28009";"4";"IBIZA";"3";"RETIRO";"442533";"4474392";"40.41817872037522";"-3.677376337125393";"915 572 601";"";"ccibiza@madrid.es";"/contenido/entidadesYorganismos/CentrosCulturales"
1933;"Centro Cultural Meseta de Orcasitas (Usera)";"";"Horario del centro:   De lunes a viernes de 9 a 14 horas y de 15 a 22 horas.  Sábados y domingos, según programación. Agosto cerrado.   Horario de secretaría:  De lunes a jueves de 9:30 a 14 horas y de 17 a 19:30 horas. Viernes de 9:30 a 13 horas. Agosto cerrado.   Fuera de este horario el centro permanecerá abierto durante la celebración de las actividades que se programen.";"1 Sala de exposiciones 1 Salón de actos / auditorio (aforo 280 personas)  Salas de ensayo   Aulas  Zona wifi";"Renfe: Orcasitas (C5)";"";"1";"http://www.madrid.es/sites/v/index.jsp?vgnextchannel=bfa48ab43d6bb410VgnVCM100000171f5a0aRCRD&vgnextoid=fbd91e79ee71c010VgnVCM1000000b205a0aRCRD";"ASOCIACION";"PLAZA";"V";"1";"";"";"";"";"MADRID";"MADRID";"28041";"1";"ORCASITAS";"12";"USERA";"439882";"4469031";"40.36969488211539";"-3.7081179166391824";"913 415 677";"";"ccmesetaorcasitas@madrid.es";"/contenido/entidadesYorganismos/CentrosCulturales"
1955;"Centro Cultural Miguel Hernández (Latina)";"Información general: 91 706 63 00.  Correo electrónico: ccmiguelh@madrid.es . Información sobre cursos y talleres en los siguientes enlaces:   Plataforma cursos y talleres Ayuntamiento de Madrid.  Trámites cursos y talleres Ayuntamiento de Madrid.";"Horario de verano:    Cerrado del 1 al 24 de agosto.   Julio, agosto y septiembre, de 9 a 21 horas. Sábados y domingos cerrado.   Horario de apertura del centro:  Lunes a viernes de 9 a 21:30 horas. Sábados de 9 a 13:30 horas.  Horario de atención al público:  Lunes a viernes de 9 a 14 horas y de 16 a 18 horas.";"Sala de exposiciones. Sala de lectura y estudio. Salón de actos y auditorio con aforo máximo para 154 personas.    7 aulas. Zona WIFI.";"Autobuses de la EMT:  Líneas: 34, 39, 117 y 139.  Cercanías RENFE: Línea C 5. Estación: Las Águilas.";"En la misma sede esta ubicada la Sala de Estudios Miguel Hernández.";"1";"http://www.madrid.es/sites/v/index.jsp?vgnextchannel=bfa48ab43d6bb410VgnVCM100000171f5a0aRCRD&vgnextoid=420a1e79ee71c010VgnVCM1000000b205a0aRCRD";"SERRADILLA";"CALLE";"V";"13";"";"";"";"";"MADRID";"MADRID";"28044";"7";"LAS AGUILAS";"10";"LATINA";"433622";"4470101";"40.378853797128336";"-3.7819616113032115";"917 066 300 / 917 108 523";"";"ccmiguelh@madrid.es";"/contenido/entidadesYorganismos/CentrosCulturales"
1972;"Centro Cultural Moncloa (Moncloa - Aravaca) - CERRADO";"";"";"";"Metro: Moncloa (líneas 3, 6).";"";"3";"http://www.madrid.es/sites/v/index.jsp?vgnextchannel=bfa48ab43d6bb410VgnVCM100000171f5a0aRCRD&vgnextoid=982a1e79ee71c010VgnVCM1000000b205a0aRCRD";"MONCLOA";"PLAZA";"V";"1";"";"";"";"";"MADRID";"MADRID";"28008";"2";"ARGUELLES";"9";"MONCLOA-ARAVACA";"439028";"4476311";"40.435209440386444";"-3.718872513851534";"";"";"";"/contenido/entidadesYorganismos/CentrosCulturales"
1932;"Centro Cultural Nicolás Salmerón (Chamartín)";"";"Horario del centro:    De lunes a domingo, de 8:30 a 22:00 horas.  Festivos,cerrado.   Horario de secretaría:   De lunes a viernes, de 9 a 14 y de 16 a 18 horas. Julio: de lunes a viernes de 9 a 15 horas. Agosto, cerrado  Fuera de este horario el centro permanecerá abierto durante la celebración de las actividades que se programen.";"1 Sala de exposiciones 1 Salón de actos / auditorio (aforo 234 personas)  20 aulas   Zona wifi";"Metro: Concha Espina (línea 9), Prosperidad (línea 4), Cruz del Rayo (línea 9)";"";"1";"http://www.madrid.es/sites/v/index.jsp?vgnextchannel=bfa48ab43d6bb410VgnVCM100000171f5a0aRCRD&vgnextoid=ee4a1e79ee71c010VgnVCM1000000b205a0aRCRD";"MANTUANO";"CALLE";"V";"51";"";"";"";"";"MADRID";"MADRID";"28002";"3";"CIUDAD JARDIN";"5";"CHAMARTIN";"442658";"4477740";"40.44834125150792";"-3.6761992414203526";"915 103 751";"";"ccnsalmeron@madrid.es";"/contenido/entidadesYorganismos/CentrosCulturales"
1934;"Centro Cultural Orcasur (Usera)";"";"Horario del centro:    De lunes a viernes, de 9 a 21 horas Sábados, domingos, festivos  y agosto, cerrado.   Horario de secretaría:   De lunes a jueves, de 9:30 a 14 horas y de 15 a 19 horas. Viernes, de 9:30 a 14 horas.  Julio: de lunes a viernes, de 9:30 a 14 horas.  Fuera de este horario el centro permanecerá abierto durante la celebración de las actividades que se programen.";"1 salón de actos / auditorio. Aforo 255 personas 5 aulas Zona wifi 3 gimnasios, patio interior, espacio acristalado";"Renfe: Orcasitas (C5)";"";"1";"http://www.madrid.es/sites/v/index.jsp?vgnextchannel=bfa48ab43d6bb410VgnVCM100000171f5a0aRCRD&vgnextoid=8b9a1e79ee71c010VgnVCM1000000b205a0aRCRD";"PUEBLO";"PLAZA";"V";"2";"";"";"";"";"MADRID";"MADRID";"28041";"2";"ORCASUR";"12";"USERA";"440472";"4468702";"40.366772166148415";"-3.70113521931168";"913 188 090";"";"ccorcasur@madrid.es";"/contenido/entidadesYorganismos/CentrosCulturales"
1952;"Centro Cultural Príncipe de Asturias (Ciudad Lineal)";"";"Horario del centro:    De lunes a viernes, de 8:30 a 21:30 horas. Sábados, de 9:00 a 21:30 horas.  Julio y agosto: de lunes a viernes, de 8:30 a 20:30 horas. Septiembre: sábados cerrado. Domingos y festivos cerrado.   Horario de secretaría:   De lunes a jueves, de 9 a 14 horas y de 15 a 17 horas. Viernes, de 9 a 14 horas.  Julio: de lunes a viernes, de 9 a 14 horas. Agosto: no hay atención al público.    Fuera de este horario el centro permanecerá abierto durante la celebración de las actividades que se programen.";"Sala de exposiciones  Salón de actos / auditorio (aforo 246 personas) 2 aulas Sala de ensayo (se utiliza el auditorio del centro) Gimnasio Máquinas vending Biblioteca de Ciudad Lineal ubicada en el Centro Cultural Zona wifi";"Metro: Ciudad Lineal (línea 5)";"";"1,5,6";"http://www.madrid.es/sites/v/index.jsp?vgnextchannel=bfa48ab43d6bb410VgnVCM100000171f5a0aRCRD&vgnextoid=d1ca1e79ee71c010VgnVCM1000000b205a0aRCRD";"HERMANOS GARCIA NOBLEJAS";"CALLE";"V";"14";"";"";"";"";"MADRID";"MADRID";"28037";"2";"PUEBLO NUEVO";"15";"CIUDAD LINEAL";"445948";"4476395";"40.43644651057092";"-3.6372924261150033";"917 767 810";"";"ccprincipeasturias@madrid.es";"/contenido/entidadesYorganismos/CentrosCulturales"
1920;"Centro Cultural Puerta de Toledo (Centro)";"";"Horario del centro:   De lunes a sábado, de 9 a 21 horas.  Julio: de lunes a viernes, de 9 a 14 horas.  Domingos, festivos y agosto cerrado.   Horario de secretaría:   De lunes a jueves, de 9 a 14 horas y de 15 A 18 horas. Viernes, de 9 a 14. Julio: de lunes a viernes, de 9 a 14 horas.  Fuera de este horario el centro permanecerá abierto durante la celebración de las actividades que se programen.";"Salón de actos / auditorio (aforo 100 personas) 5 aulas Zona wifi";"Metro: Puerta de Toledo (línea 5)";"";"1";"http://www.madrid.es/sites/v/index.jsp?vgnextchannel=bfa48ab43d6bb410VgnVCM100000171f5a0aRCRD&vgnextoid=28ea1e79ee71c010VgnVCM1000000b205a0aRCRD";"GRAN VIA DE SAN FRANCISCO";"AVENIDA";"V";"2";"";"";"";"";"MADRID";"MADRID";"28005";"1";"PALACIO";"1";"CENTRO";"439593";"4473220";"40.40741060830642";"-3.7119168856897677";"913 662 728";"";"ccptoledo@madrid.es";"/contenido/entidadesYorganismos/CentrosCulturales"
114978;"Centro Cultural Quinta del Berro - Rafael Altamira (Salamanca)";"Todos los horarios del Centro en más información.";"";"Sala de exposiciones Sala de lectura y estudio Salón de actos / auditorio (planta baja) (aforo 65 personas) Aulas Zona wifi";"Consulta los siguientes enlaces";"Horario del centro:   De lunes a viernes, de 9 a 21:30 horas. Sábados, de 9:30 a 21:30 horas. Domingos, de 10:30 a 20:30 horas. Julio, agosto y septiembre, de lunes a viernes, 8:30 a 14:30 y de 16 a 20 horas. Sábado y domingos de julio y septiembre, de 9 a 15 y de 17 a 20 horas.  Festivos cerrado.Sabados y domingos de agosto cerrado.   Horario secretaría:  De lunes a jueves, de 9 a 14 y de 16 a 18 horas. Viernes, de 9 a 14 horas. Julio de lunes a viernes, de 9 a 14 horas.  Agosto cerrado.  Fuera de este horario el centro permanecerá abierto durante la celebración de las actividades que se programen.";"1,5";"http://www.madrid.es/sites/v/index.jsp?vgnextchannel=bfa48ab43d6bb410VgnVCM100000171f5a0aRCRD&vgnextoid=bcc7cbf06c81c010VgnVCM1000000b205a0aRCRD";"ENRIQUE D'ALMONTE";"CALLE";"V";"1";"";"";"";"";"MADRID";"MADRID";"28028";"3";"FUENTE DEL BERRO";"4";"SALAMANCA";"443759";"4474815";"40.42206923419431";"-3.6629608041639368";"915 570 808";"";"quintaberro@madrid.es";"/contenido/entidadesYorganismos/CentrosCulturales"
4703422;"Centro Cultural San Francisco La Prensa (Carabanchel)";"";"Horario del centro:   De lunes a viernes, de 9 a 21:45 horas. Sábados de 9:30 a 21:30 horas.  Domingos, festivos y agosto cerrado.   Horario de secretaría:   De lunes a jueves, de 10 a 13 horas y de 16:30 A 18 horas. Viernes, de 10 a 13:30. Julio: de lunes a viernes, de 10 a 13 horas.  Fuera de este horario el centro permanecerá abierto durante la celebración de las actividades que se programen";"Sala de exposiciones Salón de actos / auditorio (aforo 216 personas) 6 aulas  Zona wifi 2 gimnasios";"Metro: San Francisco (línea 11)";"";"1";"http://www.madrid.es/sites/v/index.jsp?vgnextchannel=bfa48ab43d6bb410VgnVCM100000171f5a0aRCRD&vgnextoid=5787e842ec9a6110VgnVCM1000000b205a0aRCRD";"ALISEDA";"CALLE";"V";"4";"";"";"";"";"MADRID";"MADRID";"28025";"5";"PUERTA BONITA";"11";"CARABANCHEL";"437044";"4469856";"40.37691447788016";"-3.7416256113806847";"914 284 911";"";"ccprensa@madrid.es";"/contenido/entidadesYorganismos/CentrosCulturales"
1958;"Centro Cultural San Juan Bautista (Ciudad Lineal)";"";"Horario del centro:   De lunes a sábado, de 9 a 22 horas.  Julio: de lunes a viernes, de 9 a 15 horas.  Domingos, festivos y agosto cerrado.   Horario de secretaría:   De lunes a jueves, de 9:30 a 14 horas y de 15:30 A 18 horas. Viernes, de 9:30 a 14:30. Julio: de lunes a viernes, de 9 a 14 horas.  Fuera de este horario el centro permanecerá abierto durante la celebración de las actividades que se programen.";"Sala de exposiciones Sala de lectura y estudio Salón de actos / auditorio (aforo 277) 8 Aulas Zona wifi";"Metro: Avenida de la Paz (línea 4)";"";"1";"http://www.madrid.es/sites/v/index.jsp?vgnextchannel=bfa48ab43d6bb410VgnVCM100000171f5a0aRCRD&vgnextoid=618b1e79ee71c010VgnVCM1000000b205a0aRCRD";"SAN NEMESIO";"CALLE";"V";"4";"";"";"";"";"MADRID";"MADRID";"28043";"6";"SAN JUAN BAUTISTA";"15";"CIUDAD LINEAL";"444202";"4478162";"40.45224710166";"-3.658029027767765";"914 157 705";"";"ccsanjuanbautista@madrid.es";"/contenido/entidadesYorganismos/SalasEstudioLectura"
6018014;"Centro Cultural Sanchinarro (Hortaleza)";"";"Horario del centro:    De lunes a domingos y festivos, de 8:30 a 22 horas.  24 y 31 de diciembre, de 8:30 a 15 horas. 25 de diciembre y 1 de enero, cerrado.   Horario de secretaría:   De lunes a viernes, de 10 a 14 horas y de 16 a 19 horas.   Fuera de este horario el centro permanecerá abierto durante la celebración de las actividades que se programen.";"Sala de exposiciones Sala de lectura y estudio Salón de actos / auditorio (aforo completo 404 plazas) 17 aulas Zona wifi Máquinas vending";"Metro Ligero: Blasco Ibáñez";"";"1";"http://www.madrid.es/sites/v/index.jsp?vgnextchannel=bfa48ab43d6bb410VgnVCM100000171f5a0aRCRD&vgnextoid=12eb70618510f210VgnVCM1000000b205a0aRCRD";"PRINCESA DE EBOLI";"CALLE";"V";"29";"";"";"";"";"MADRID";"MADRID";"28050";"6";"VALDEFUENTES";"16";"HORTALEZA";"444461";"4482397";"40.49042200599307";"-3.6553467891079854";"915 000 603";"";"info@centroculturalsanchinarro.com";"/contenido/entidadesYorganismos/CentrosCulturales"
115404;"Centro Cultural Sara Montiel (Latina)";"Información general: 91 512 08 90.  Correo electrónico: cccampamento@madrid.es . Información sobre cursos y talleres:   Plataforma cursos y talleres Ayuntamiento de Madrid.  Trámites cursos y talleres Ayuntamiento de Madrid.";"Horario de verano:    Cerrado del 1 al 24 de agosto.   Julio, agosto y septiembre, de 9 a 21 horas de lunes a viernes. Sábados y domingos cerrado.   Horario de apertura del centro:  Lunes a viernes de 9 a 21:30 horas. Sábados de 9 a 13:30 horas.  Horario de atención al público:  De lunes a viernes de 9 a 14 horas y de 16:30 a 19 horas.";"Sala de exposiciones. Sala de lectura y estudio.  Salón de actos y auditorio con aforo máximo para 170 personas.  8 aulas. Zona WIFI.";"Metro:. Líneas 10, Metro Ligero 2 y Metro Ligero 3. Estación: Colonia Jardín.   Autobuses EMT : Línea 65 y línea H.";"En la misma sede está ubicada la sala de estudio Sara Montiel.";"1";"http://www.madrid.es/sites/v/index.jsp?vgnextchannel=bfa48ab43d6bb410VgnVCM100000171f5a0aRCRD&vgnextoid=c957cbf06c81c010VgnVCM1000000b205a0aRCRD";"BOADILLA DEL MONTE";"CARRETERA";"V";"40";"";"";"";"";"MADRID";"MADRID";"28024";"5";"CAMPAMENTO";"10";"LATINA";"434222";"4472418";"40.399764677637116";"-3.775144917950534";"915 120 890";"";"ccsaramontiel@madrid.es";"/contenido/entidadesYorganismos/CentrosCulturales"
1994;"Centro Cultural Usera 1";"";"Horario del centro:    De lunes a viernes, de 9 a 21 horas.   Sábados, domingos y agosto, cerrado.    Horario de secretaría:   De lunes a jueves, de 10 a 18:30 horas. Viernes de 10 a 14 horas.  Julio, de lunes a viernes, de 9 a 14 horas.   Fuera de este horario el centro permanecerá abierto durante la celebración de las actividades que se programen.";"Sala de exposiciones 4 aulas  1 sala de ensayo (aula sin insonorización)  Zona wifi";"Metro: Plaza Elíptica (línea 6)";"";"1";"http://www.madrid.es/sites/v/index.jsp?vgnextchannel=bfa48ab43d6bb410VgnVCM100000171f5a0aRCRD&vgnextoid=54fb1e79ee71c010VgnVCM1000000b205a0aRCRD";"RAFAELA YBARRA";"AVENIDA";"V";"49";"";"";"";"";"MADRID";"MADRID";"28026";"7";"PRADOLONGO";"12";"USERA";"439635";"4470301";"40.381114597104194";"-3.711149675992656";"915 887 214";"";"ccusera@madrid.es";"/contenido/entidadesYorganismos/CentrosCulturales"
7416137;"Centro Cultural Usera 2";"";"Horario del centro:    De lunes a jueves, de 9:30 a 13:30 y de 17 a 21:30 horas. Vienres, sábados, domingos, julio, agosto y septiembre, cerrado.    Horario de secretaría:    Las funciones de secretaría se realizan desde el Centro Cultural Usera 1.  Fuera de este horario el centro permanecerá abierto durante la celebración de las actividades que se programen.";"3 aulas";"Metro: Usera (línea 6)";"";"0";"http://www.madrid.es/sites/v/index.jsp?vgnextchannel=bfa48ab43d6bb410VgnVCM100000171f5a0aRCRD&vgnextoid=3cadb2cffdc15410VgnVCM1000000b205a0aRCRD";"FELIPE CASTRO";"CALLE";"V";"30";"";"";"";"";"MADRID";"MADRID";"28026";"7";"PRADOLONGO";"12";"USERA";"439814";"4470653";"40.38430441585109";"-3.709071424745629";"914 764 204";"";"ccusera@madrid.es";"/contenido/entidadesYorganismos/CentrosCulturales"
123948;"Centro Cultural Valdebernardo (Vicálvaro)";"";"Horario del centro:   De lunes a viernes de 9 a 21:30 horas. Sábados, domingos y festivos de 9 a 19:45 horas. Agosto, 24, 25, 31 de diciembre y 1, 6 de enero, cerrado.   Horario de secretaría:   De lunes a viernes de 9 a 16 horas Julio de 9 a 14 horas de lunes a viernes  Fuera de este horario el centro permanecerá abierto durante la celebración de las actividades que se programen.";"Sala de exposiciones. 2 salas de lectura y estudio. Salón de actos / Auditorio (Aforo: 280 personas). Salas de ensayo. 14 aulas. Zona wifi.";"Metro: Valdebernardo (línea 9).";"";"1";"http://www.madrid.es/sites/v/index.jsp?vgnextchannel=bfa48ab43d6bb410VgnVCM100000171f5a0aRCRD&vgnextoid=69188899fc81c010VgnVCM1000000b205a0aRCRD";"INDALECIO PRIETO";"BULEVAR";"V";"21";"";"";"";"";"MADRID";"MADRID";"28032";"2";"VALDEBERNARDO";"19";"VICALVARO";"447278";"4472321";"40.399832138328044";"-3.6212720265227873";"913 016 460 / 913 016 462";"";"ccvaldebernardo@madrid.es";"/contenido/entidadesYorganismos/CentrosCulturales"
1980;"Centro Cultural Zazuar (Villa de Vallecas)";"";"Horario del centro:    De lunes a viernes, de 9 a 21 horas. Sábados, de 9:00 a 13:30 horas.  Agosto: de lunes a viernes, de 9 a 14:30 horas. Domingos y festivos cerrado.   Horario de secretaría:   De lunes a viernes, de 9 a 13:30 horas y de 16 a 19:30 horas. Julio y agosto: de lunes a viernes, de 9 a 13:30 horas.  Fuera de este horario el centro permanecerá abierto durante la celebración de las actividades que se programen.";"Salón de actos / auditorio (aforo 164 butacas) 6 aulas Zona wifi";"Consulta los siguientes enlaces:";"";"1,6";"http://www.madrid.es/sites/v/index.jsp?vgnextchannel=bfa48ab43d6bb410VgnVCM100000171f5a0aRCRD&vgnextoid=9d8c1e79ee71c010VgnVCM1000000b205a0aRCRD";"ZAZUAR";"CALLE";"V";"4";"";"";"";"";"MADRID";"MADRID";"28031";"2";"SANTA EUGENIA";"18";"VILLA DE VALLECAS";"448550";"4470424";"40.38281866921273";"-3.6061377076487906";"913 322 529";"";"cczazuar@madrid.es";"/contenido/entidadesYorganismos/CentrosCulturales"
1953;"Centro Cultural el Madroño (Vicálvaro)";"";"Horario del centro:   De lunes a viernes de 8:30 a 21:00 horas. Sábados, domingos y festivos* de 9 a 19:45 horas. 24, 25, 31 de diciembre y 1, 6 de enero, cerrado.   Horario de secretaría:   De lunes a jueves de 9 a 14 horas y de 16:30 a 18:30 horas Viernes de 9 a 14 horas. Julio: de lunes a viernes de 9 a 14 horas.";"Sala de exposiciones 2 Sala de lectura y estudio.  Salón de actos / Auditorio (Aforo: 250 personas).  7 Aulas. Zona wifi.";"Metro: Vicálvaro (línea 9)";"";"1";"http://www.madrid.es/sites/v/index.jsp?vgnextchannel=bfa48ab43d6bb410VgnVCM100000171f5a0aRCRD&vgnextoid=57b63d0b5e71c010VgnVCM1000000b205a0aRCRD";"VILLARDONDIEGO";"CALLE";"V";"36";"";"";"";"";"MADRID";"MADRID";"28032";"1";"CASCO H.VICALVARO";"19";"VICALVARO";"448357";"4472920";"40.40529229274289";"-3.6086152959929514";"917 753 140";"";"ccelmadrono@madrid.es";"/contenido/entidadesYorganismos/CentrosCulturales"
1940;"Centro Cultural el Torito (Moratalaz)";"";"Horario del centro:   De lunes a sábado, de 9 a 14 horas y de 15 a 21:30 horas. Sábados, de 10 a 14 horas y de 16 a 21:30 horas.  Julio: de lunes a viernes, de 9 a 14 horas.  Domingos, festivos y agosto cerrado.   Horario de secretaría:   De lunes a viernes, de 9 a 13:30 horas y de 17 A 18:30 horas. Julio: de lunes a viernes, de 9 a 13:30 horas.  Fuera de este horario el centro permanecerá abierto durante la celebración de las actividades que se programen.";"Sala de lectura y estudio Salón de actos / auditorio (Aforo: 200 personas) Salas de ensayo 9 Aulas Zona wifi";"Metro: Artilleros (línea 9)";"";"1";"http://www.madrid.es/sites/v/index.jsp?vgnextchannel=bfa48ab43d6bb410VgnVCM100000171f5a0aRCRD&vgnextoid=f3073d0b5e71c010VgnVCM1000000b205a0aRCRD";"MORATALAZ";"AVENIDA";"V";"130";"";"";"";"";"MADRID";"MADRID";"28030";"6";"VINATEROS";"14";"MORATALAZ";"445141";"4473033";"40.40610655994401";"-3.646521482592748";"913 287 385";"";"cceltorito@madrid.es";"/contenido/entidadesYorganismos/CentrosCulturales"
1951;"Centro Cultural la Elipa (Ciudad Lineal)";"";"Horario del centro:   De lunes a sábado, de 9 a 22 horas.  Julio: de lunes a viernes, de 9 a 15 horas.  Domingos, festivos y agosto cerrado.   Horario de secretaría:   De lunes a jueves, de 9 a 14 horas y de 14:30 a 17 horas. Viernes, de 9 a 14 horas. Julio: de lunes a viernes, de 9 a 14 horas.  Fuera de este horario el centro permanecerá abierto durante la celebración de las actividades que se programen.";"Sala de exposiciones Salón de actos / auditorio (aforo 250 personas) 8 aulas Zona wifi";"Metro: La Elipa (línea 2).";"";"1";"http://www.madrid.es/sites/v/index.jsp?vgnextchannel=bfa48ab43d6bb410VgnVCM100000171f5a0aRCRD&vgnextoid=6c191e79ee71c010VgnVCM1000000b205a0aRCRD";"SANTA FELICIDAD";"CALLE";"V";"39";"";"";"";"";"MADRID";"MADRID";"28017";"1";"VENTAS";"15";"CIUDAD LINEAL";"444825";"4475074";"40.42446957496409";"-3.6504201407465917";"914 055 312";"";"ccelipa@madrid.es";"/contenido/entidadesYorganismos/CentrosCulturales"
12551784;"Centro Danza Matadero - CDM";"Centro Danza Matadero - CDM se inspira en los grandes espacios de danza del mundo, que centran su línea editorial en la personalidad creativa de un artista que, en este caso, es María Pagés, artista portadora de una visión que aspira transformar la danza flamenca, arte español hasta la médula, en el hogar de todas las danzas del mundo. La línea editorial desea situar a Matadero Madriden el mundo de la danza, impulsándolo, desde Legazpi, Arganzuela, como un espacio cultural, cívico y resiliente que transforma el patrimonio cultural y humano de Madrid en un valor creativo y ético global.";"Según programación.";"CDM cuenta con una superficie de cerca de 1300 m&amp;sup2; y un aforo máximo con la distribución de gradas habitual de 449 butacas, con posibilidad de ampliación hasta 634 localidades con despliegue de las gradas laterales. Cuenta como equipamiento con camerinos, duchas, aseos, sala de peluquería y maquillaje y sala de sastrería. El centro será sede también de residencias artísticas y espacio de formación, con talleres y clases magistrales en ramas como interpretación, coreografía o dirección de escena Igualmente potenciará la divulgación sobre la danza en su relación con la ciencia, la salud, la educación y el deporte, entre otros aspectos Las entradas para los espectáculos estarán disponibles a partir del 1 de diciembre en su web: www.centrodanzamatadero.es";"Metro: Legazpi (líneas 3 y 6)  Renfe: Embajadores (línea C5)";"";"1";"http://www.madrid.es/sites/v/index.jsp?vgnextchannel=bfa48ab43d6bb410VgnVCM100000171f5a0aRCRD&vgnextoid=2b09c47ca9572910VgnVCM1000001d4a900aRCRD";"CHOPERA";"PASEO";"V";"14";"";"";"";"";"MADRID";"MADRID";"28045";"3";"CHOPERA";"2";"ARGANZUELA";"440828";"4471551";"40.39245798191536";"-3.6972067902718897";"";"";"";"/contenido/entidadesYorganismos/Teatros"
80143;"Centro Dotacional Integrado Arganzuela Ángel del Río";"";"Horario del centro:    De lunes a sábado, de 9 a 21 horas.  Sábados, domingos, festivos y agosto, cerrado.   Horario de secretaría:   De lunes a viernes de 10 a 13 y de 17 a 18:30 horas Julio: de lunes a viernes, de 10 a 14 horas.  Fuera de este horario el centro permanecerá abierto durante la celebración de las actividades que se programen.";"Sala de exposiciones Sala de lectura y estudio Salón de actos / auditorio (151 personas) 8 Aulas Zona wifi Cafetería";"Metro: Palos de la Frontera (línea 3)  Cercanías Renfe: Delicias (líneas C1, C7, C10, Regional)";"";"1";"http://www.madrid.es/sites/v/index.jsp?vgnextchannel=bfa48ab43d6bb410VgnVCM100000171f5a0aRCRD&vgnextoid=f9ea79262ef5d010VgnVCM1000000b205a0aRCRD";"CANARIAS";"CALLE";"V";"17";"";"";"";"";"MADRID";"MADRID";"28045";"6";"PALOS DE LA FRONTERA";"2";"ARGANZUELA";"440986";"4472656";"40.40242416544921";"-3.6954440062549017";"915 063 610";"";"cdiarganzuela@madrid.es";"/contenido/entidadesYorganismos/CentrosCulturales"
112637;"Centro Integrado Santiago Apóstol (Hortaleza)";"";"De lunes a viernes, de 9 a 14 horas y de 16 a 21 horas. Agosto cerrado  Fuera de este horario el centro permanecerá abierto durante la celebración de las actividades que se programen.";"14 aulas 2 pistas deportivas";"Metro: Manoteras (línea 4).  Bus: 7, 29, 129.";"";"1";"http://www.madrid.es/sites/v/index.jsp?vgnextchannel=bfa48ab43d6bb410VgnVCM100000171f5a0aRCRD&vgnextoid=38f415a11a81c010VgnVCM1000000b205a0aRCRD";"CARRION DE LOS CONDES";"CALLE";"V";"73";"";"";"";"";"MADRID";"MADRID";"28033";"5";"APOSTOL SANTIAGO";"16";"HORTALEZA";"444216";"4480809";"40.4760846979538";"-3.6581195337045274";"913 835 941";"";"";"/contenido/entidadesYorganismos/CentrosCulturales"
12383033;"Centro Intergeneracional Ouka Leele.
Centro Juvenil-planta 2";"Mira la programación mensual de cada uno de los centros juveniles, encontrarás talleres, teatro, actividades, cesiones de espacios para tu música o tus ensayos, exposiciones; además Wifi gratuito, oficinas de información juvenil y un montón de cosas interesantes.  Información sobre las actividades y cesión de espacios   Correo: actividades@cjoukaleele.com Consulta la programación aquí  Para inscribirte en la actividad que más te guste cumplimenta y envía este formulario .    WEB: www.cjoukaleele.com";"Sala de estudios:   De lunes a viernes de 9 a 14 hh de 15 a 21:15 h. Sábados, domingos y festivos de apertura: de 10 a 14: y de 15 a 21:45 h.   Información, contacto y reserva de espacios: de lunes a domingo de 10 a 22 h. Dinamización: de lunes a domingo de 10 a 22 h.";"Programación mensual de actividades gratuitas en www.cjoukaleele.com (salidas a la naturaleza, culturales, concursos, torneos, actividades deportivas, artísticas, musicales...) Zona de dinamización (ping pong, futbolín, juegos de mesa, diana, play...). Sala de estudios de acceso libre hasta completar aforo.  Cesión de espacios para ensayos y promoción artística (con reserva previa).";"Metro: Legazpi (líneas 3 y 6) y Planetario (línea 6) Bus: 148, 156, 62 T32 N13";"";"1";"http://www.madrid.es/sites/v/index.jsp?vgnextchannel=bfa48ab43d6bb410VgnVCM100000171f5a0aRCRD&vgnextoid=9721133100fbf810VgnVCM1000001d4a900aRCRD";"BRONCE";"CALLE";"V";"16";"";"";"";"";"MADRID";"MADRID";"28045";"4";"LEGAZPI";"2";"ARGANZUELA";"441570";"4471202";"40.389367699255175";"-3.6884383126394686";"Teléfonos: 913809582 / 660338938 (también WhatsApp)";"";"actividades@cjoukaleele.com";"/contenido/entidadesYorganismos/OficinasInformacionJuvenil"
12418106;"Centro Intergeneracional Río Esmeralda";"Centro del departamento de Servicios Sociales ubicado en el distrito de Puente de Vallecas, en el que personas de todas las edades participan conjuntamente en servicios y programas que se llevan a cabo en el espacio. Actividades para población infantil, juvenil, adulta y mayores. Consulta toda la programación en el siguiente  enlace.";"De lunes a viernes de 9 a 21 horas. Sábados (a partir de octubre) de 10 a 14 horas.";"Equipamientos:  2 salas de ensayo 1 estudio de grabación 1 sala de uso múltiple 2 aulas  Servicios:   Ludoteca Clases de baile y movimiento Clases de música Espacio de encuentro y juegos Cafetería Zona wifi";"Metro: Alto del Arenal (Línea 1) y Buenos Aires (Línea 1)";"";"1";"http://www.madrid.es/sites/v/index.jsp?vgnextchannel=bfa48ab43d6bb410VgnVCM100000171f5a0aRCRD&vgnextoid=e73c49677eab0910VgnVCM1000001d4a900aRCRD";"LAGO MARACAIBO";"CALLE";"V";"8";"";"";"";"";"MADRID";"MADRID";"28018";"5";"PORTAZGO";"13";"PUENTE DE VALLECAS";"444655";"4470494";"40.383202672832304";"-3.6520212485606334";"657 948 066";"";"centro.rioesmeralda@gmail.com";"/contenido/entidadesYorganismos/CentrosCulturales"
4703662;"Centro Juvenil Carabanchel Alto";"Mira la programación mensual de cada uno de los centros juveniles, encontrarás talleres, teatro, actividades, cesiones de espacios para tu música o tus ensayos, exposiciones; además Wifi gratuito, oficinas de información juvenil y un montón de cosas interesantes. Información sobre las actividades y cesión de espacios: Correo:  actividadescarabanchel@gmail.com   Teléfono de contacto: 914006417 Teléfono: 915118980 Consulta la programación aquí  Para inscribirte en la actividad que más te guste cumplimenta y envía este formulario.";"Horario de apertura del centro: de lunes a viernes de 10 a 14:30 horas y de 15:30 a 21 horas. Los sábados de 11 a 21 horas.  Horario de atención al público: lunes y sábado de 13 a 14:30 horas y de 15:30 a 21 horas. Los martes, miércoles, jueves y viernes de 10 a 14 horas y de 15:30 a 21 horas.   Cierres para 2023: 1 y 6 de enero, 20 de marzo, 6, 7 y 8 de abril, 1, 2 y 15 de mayo, TODO EL MES DE AGOSTO, 12 de octubre, 1 y 9 de noviembre, 6, 8, 24, 25 y 31 de diciembre.  El centro permanecerá cerrado todos los domingos.";"Salas de ensayo 3 aulas Sala polivalente";"Metro: La Peseta (línea 11) Bus: 35 y 47";"";"1";"http://www.madrid.es/sites/v/index.jsp?vgnextchannel=bfa48ab43d6bb410VgnVCM100000171f5a0aRCRD&vgnextoid=2565d2d6fe9a6110VgnVCM1000000b205a0aRCRD";"ALFONSO FERNANDEZ";"CALLE";"V";"23";"";"";"";"";"MADRID";"MADRID";"28044";"6";"BUENAVISTA";"11";"CARABANCHEL";"435861";"4468746";"40.366822704148795";"-3.755451103709316";"91 4006417 Móvil/WhatsApp: 636 04 55 86";"";"cjcarabanchel@centrosjuvenilesmadrid.com";"/contenido/entidadesYorganismos/OficinasInformacionJuvenil"
146682;"Centro Juvenil El Aleph (Villa de Vallecas)";"Mira la programación mensual de cada uno de los centros juveniles, encontrarás talleres, teatro, actividades, cesiones de espacios para tu música o tus ensayos, exposiciones; además Wifi gratuito, oficinas de información juvenil y un montón de cosas interesantes.  Información sobre las actividades y cesión de espacios:   Correo:  actividadeselaleph@gmail.com    Teléfono: 913 312 725 Consulta la programación aquí  Para inscribirte en la actividad que más te guste cumplimenta y envía este formulario.";"Horario de apertura del centro: de lunes a domingo de 8:30 a 21 horas. Agosto cerrado.  Horario de atención al público ( cuando están los monitores) Lunes y sábado :13:00 a 15:00 / 16:00 a 21: 00h martes a viernes :10:00  a 15:00 / 16:00 a 21:00h domingos: 12:00 a 15:00 /16:00 a 20:00h";"Recursos permanentes   Sala polivalente Puntos de acceso a Internet Wifi gratuito";"Bus: 58 , 63 , 145 Renfe: Santa Eugenia";"";"1";"http://www.madrid.es/sites/v/index.jsp?vgnextchannel=bfa48ab43d6bb410VgnVCM100000171f5a0aRCRD&vgnextoid=84869475d381c010VgnVCM1000000b205a0aRCRD";"ZAZUAR";"CALLE";"V";"1";"";"";"";"C/V. Avda. Mediterráneo";"MADRID";"MADRID";"28031";"2";"SANTA EUGENIA";"18";"VILLA DE VALLECAS";"448609";"4470397";"40.38257934400676";"-3.6054546139177392";"91 3312725 Móvil/WhatsApp: 683 51 65 65";"";"cjelaleph@centrosjuvenilesmadrid.com";"/contenido/entidadesYorganismos/OficinasInformacionJuvenil"
190703;"Centro Juvenil El Pardo";"Mira la programación mensual de cada uno de los centros juveniles, encontrarás talleres, teatro, actividades, cesiones de espacios para tu música o tus ensayos, exposiciones; además Wifi gratuito, oficinas de información juvenil y un montón de cosas interesantes.  Información sobre las actividades y cesión de espacios   Correo:  actividadeselpardo@gmail.com    Teléfono: 913 760 652 Consulta la programación aquí  Para inscribirte en la actividad que más te guste cumplimenta y envía este formulario.";"Apertura del centro los martes a sábado de 13 a 21 horas.";"Recursos permanentes   Salas polivalentes Puntos de acceso a Internet Wifi gratuito Oficina de Información Juvenil";"Autobús: desde el intercambiador de Moncloa el 601 (isla 3-dársena 30) y el 602 que sale del hospital Universitario la Paz.";"";"1";"http://www.madrid.es/sites/v/index.jsp?vgnextchannel=bfa48ab43d6bb410VgnVCM100000171f5a0aRCRD&vgnextoid=617ef50ad2a30110VgnVCM1000000b205a0aRCRD";"PADRE CIPRIANO";"AVENIDA";"V";"11";"";"";"";"";"MADRID";"MADRID";"28048";"1";"EL PARDO";"8";"FUENCARRAL-EL PARDO";"434051";"4485727";"40.51964199418355";"-3.778542672958104";"913 760 652 Móvil/WhatsApp: 653 39 89 57";"";"cjelpardo@centrosjuvenilesmadrid.com";"/contenido/entidadesYorganismos/OficinasInformacionJuvenil"
182139;"Centro Juvenil El Sitio de mi Recreo (Villa de Vallecas)";"Mira la programación mensual de cada uno de los centros juveniles, encontrarás talleres, teatro, actividades, cesiones de espacios para tu música o tus ensayos, exposiciones; además Wifi gratuito, oficinas de información juvenil y un montón de cosas interesantes.  Información sobre las actividades y cesión de espacios:   Correo:  actividadeselrecreo@gmail.com    Teléfono: 913320198  Teléfono: 913 05 24 48  Horario de reserva cesiones de espacio y salas de ensayo: Lunes a jueves de 10:00 a 15:00 y de 16:00 a 19:00 h. Viernes de 9:00 a 15:30 h. Consulta la programación aquí  Para inscribirte en la actividad que más te guste cumplimenta y envía este formulario.";"Horario de atención al público : De lunes a sábado de 10 a 15 horas y de 16 a 21 horas. Domingos de 12 a 15 horas y de 16 a 20 horas.  Horario de apertura y cierre: Lunes a domingo de 08.30- 21.30 h";"Recursos permanentes   Sala polivalente Sala de lectura Sala exposiciones  Teatro/Auditorio  3 locales de ensayo  Puntos de acceso a Internet Wifi gratuito Oficina de Información Juvenil  Para solicitar cesión de espacios gratuita en el Centro Juvenil El Sitio de mi Recreo es necesario contactar por teléfono en el 913 32 01 98 para consultar disponibilidad y, una vez confirmada, rellenar el siguiente formulario (un único formulario por grupo).";"Metro: Villa de Vallecas (línea 1)   Bus: 54, 58, 103, 142, 143, N9  Renfe: Vallecas";"";"1";"http://www.madrid.es/sites/v/index.jsp?vgnextchannel=bfa48ab43d6bb410VgnVCM100000171f5a0aRCRD&vgnextoid=9bd738d60b41c010VgnVCM2000000c205a0aRCRD";"REAL DE ARGANDA";"CALLE";"V";"39";"";"";"";"";"MADRID";"MADRID";"28031";"2";"SANTA EUGENIA";"18";"VILLA DE VALLECAS";"447634";"4470066";"40.37953682427198";"-3.616901585603186";"91 3320198 Móvil/WhatsApp: 606 00 04 09";"";"cjelsitiodemirecreo@centrosjuvenilesmadrid.com";"/contenido/entidadesYorganismos/OficinasInformacionJuvenil"
5396226;"Centro Juvenil Hontalbilla (Fuencarral - El Pardo)";"Mira la programación mensual de cada uno de los centros juveniles, encontrarás talleres, teatro, actividades, cesiones de espacios para tu música o tus ensayos, exposiciones; además Wifi gratuito, oficinas de información juvenil y un montón de cosas interesantes.  Información sobre las actividades y cesión de espacios   Correo:  actividadeshontalbilla@gmail.com    Teléfono: 917 342 878 y 917 364 378 Consulta la programación aquí  Para inscribirte en la actividad que más te guste cumplimenta y envía este formulario.";"Horario de apertura del centro:    Mañanas: de lunes a sábados, de: 9 a 15 horas Tardes:de lunes a sábados, de 16 a  21 horas  Agosto centro juvenil cerrado.";"Recursos permanentes   Salas polivalentes Puntos de acceso a Internet Wifi gratuito Oficina de Información Juvenil";"Metro: Fuencarral (línea 10) Bus: 66, 124 y 137, 154, N24 Renfe: Madrid-Ramón y Cajal";"";"0";"http://www.madrid.es/sites/v/index.jsp?vgnextchannel=bfa48ab43d6bb410VgnVCM100000171f5a0aRCRD&vgnextoid=afc93331c9ee2210VgnVCM2000000c205a0aRCRD";"HONTALBILLA";"CALLE";"V";"10";"";"";"";"";"MADRID";"MADRID";"28034";"6";"VALVERDE";"8";"FUENCARRAL-EL PARDO";"441474";"4482632";"40.49231828430878";"-3.6906342081203283";"917 364 378 Móvil/WhatsApp: 606 00 38 52";"";"cjhontalbilla@centrosjuvenilesmadrid.com";"/contenido/entidadesYorganismos/OficinasInformacionJuvenil"
11925994;"Centro Juvenil Pipo Velasco (Usera)";"Mira la programación mensual de cada uno de los centros juveniles, encontrarás talleres, teatro, actividades, cesiones de espacios para tu música o tus ensayos, exposiciones; además Wifi gratuito, oficinas de información juvenil y un montón de cosas interesantes.  Información sobre las actividades y cesión de espacios:   Correo: actividadespipo@gmail.com   Teléfono: 609619978 Puedes consultar las actividades de los Centros Juveniles  aquí";"Invierno   Lunes-viernes: 9 a 22 h. Sábados y domingos: 10 a 22 h. Sin dinamización de 9  a 10h  de lunes a viernes   Verano   Lunes-jueves: 9 a 22 h. Viernes: 9  a 00 h. Sábados: 10 a 00 h Domingos: 10 a 22 h. Sin dinamización de 16 -18 h de lunes a domingo y de 9  a 10  de lunes a viernes";"Recursos permanentes   Sala usos múltiples Sala de estudio Sala de recreativos Sala de juegos de mesa Cantina Cineteca 4 locales de ensayo  2 salas de artes escénicas Sala de danza Puntos de acceso a  Internet Wifi gratuito  Oficina de Información Juvenil Asesoría jurídica Psicología y Coaching   Para solicitar cesión de espacios gratuita en el centro es necesario llamar al 609619978 para realizar una prereserva, de estar disponible el espacio se os pasará un único formulario a modo de reserva.";"Metro: Plaza Elíptica   Bus:  6, 60, 78, 81";"";"1";"http://www.madrid.es/sites/v/index.jsp?vgnextchannel=bfa48ab43d6bb410VgnVCM100000171f5a0aRCRD&vgnextoid=a0d2795e39a36810VgnVCM2000001f4a900aRCRD";"AVENA";"CALLE";"V";"5";"";"";"";"";"MADRID";"MADRID";"28026";"6";"ZOFIO";"12";"USERA";"439248";"4469889";"40.37738097077752";"-3.715659887802671";"609619978";"";"actividadespipo@gmail.com";"/contenido/entidadesYorganismos/OficinasInformacionJuvenil"
4923522;"Centro Juvenil Tetuán Punto Joven";"Mira la programación mensual de cada uno de los centros juveniles, encontrarás talleres, teatro, actividades, cesiones de espacios para tu música o tus ensayos, exposiciones; además Wifi gratuito, oficinas de información juvenil y un montón de cosas interesantes.  Información sobre las actividades y cesión de espacios   Correo:  tetuanpuntojoven@gmail.com    Teléfono: 915 347 744 Consulta la programación aquí  Para inscribirte en la actividad que más te guste cumplimenta y envía este formulario.     Para inscribirte en la actividad que más te guste cumplimenta y envía este formulario.";"Los lunes de 13 a 21 horas. De martes a viernes de 10 a 21 horas, los sábados de 12 a 20 horas. Domingos y festivos: cerrado. Agosto: cerrado.";"Sala Polivalente Punto de acceso a Internet. Wifi gratuito Oficina de Información Juvenil";"Metro: Cuatro Caminos (líneas 1, 2 y 6) y Nuevos Ministerios (líneas 6, 8 y 10) Bus: 5, 45, 66, 127, 128, 14 , C1, C2 Cercanías: Nuevos Ministerios";"";"0";"http://www.madrid.es/sites/v/index.jsp?vgnextchannel=bfa48ab43d6bb410VgnVCM100000171f5a0aRCRD&vgnextoid=2f9e41aee5a2a110VgnVCM1000000b205a0aRCRD";"DULCINEA";"CALLE";"V";"4";"";"";"";"Acceso por Raimundo Fdez. Villaverde, 35";"MADRID";"MADRID";"28020";"2";"CUATRO CAMINOS";"6";"TETUAN";"440651";"4477630";"40.447199849232135";"-3.6998771920981004";"915 347 744 Móvil/WhatsApp: 606 00 37 79";"";"cjtetuan@centrosjuvenilesmadrid.com";"/contenido/entidadesYorganismos/OficinasInformacionJuvenil"
4535757;"Centro Sefarad - Israel";"Consorcio integrado por el Ministerio de Asuntos Exteriores, Unión Europea y Cooperación, la Comunidad de Madrid y el Ayuntamiento de Madrid. Nuestra misión es promocionar el rico legado sefardí existente en España, divulgar las diferentes manifestaciones de la cultura judía y promover una red de relaciones con nuestros amigos de Israel.";"";"";"Metro: Sol (líneas 1, 2, 3), Ópera (líneas 2, 5 y R).  Cercanías Renfe: Sol (líneas C3, C3a, C4 y Regional).";"";"3";"http://www.madrid.es/sites/v/index.jsp?vgnextchannel=bfa48ab43d6bb410VgnVCM100000171f5a0aRCRD&vgnextoid=9d50215a57131110VgnVCM2000000c205a0aRCRD";"MAYOR";"CALLE";"V";"69";"";"";"";"";"MADRID";"MADRID";"28013";"1";"PALACIO";"1";"CENTRO";"439659";"4474098";"40.41532290628835";"-3.711227065575005";"913 911 002";"915 419 310";"centro@sefarad-israel.es";"/contenido/entidadesYorganismos/Consorcios"
6396299;"Centro Social Comunitario Josefa Amar";"";"De lunes a viernes de 9:30 a 20:30 horas. Sábados de 10 a 20 horas. Domingos de 10 a 14 y de 16 a 20 horas.";"Asesoramiento a entidades y formación a profesionales. Trabajo en Red con entidades, grupos y servicios. Información sobre salas y aulas polivalentes para talleres, cursos y actividades de grupo. Centro de día infantil. 'Truequeteca' (donde donar y llevarte libros y películas).  Para solicitar información comunitaria de Tetuán o solicitar y proponer uso de espacios puedes ponerte en contacto con participaciontetuan@madrid.es";"Metro: Ventilla (línea 9)";"El Centro Social Comunitario Josefa Amar de Tetuán es un espacio abierto y flexible en el que se realizan todo tipo de actividades abiertas a la comunidad y dirigidas a la mejora de la calidad de vida y la convivencia. Se ofrece asesoría y apoyo a entidades que desarrollan su labor en el distrito, así como orientación a todas aquellas personas interesadas en participar. Es un espacio comunitario en el que entidades pueden solicitar hacer uso de alguna de sus salas polivalentes para realizar actividades siempre dentro de los objetivos del centro y con autorización previa de la Junta Municipal del Distrito de Tetuán.";"1";"http://www.madrid.es/sites/v/index.jsp?vgnextchannel=bfa48ab43d6bb410VgnVCM100000171f5a0aRCRD&vgnextoid=edda0bb16aba6310VgnVCM1000000b205a0aRCRD";"MATILDE LANDA";"CALLE";"V";"30";"";"";"";"";"MADRID";"MADRID";"28029";"4";"ALMENARA";"6";"TETUAN";"441164";"4480511";"40.4731994125293";"-3.6940812660649414";"917 330 258";"";"participaciontetuan@madrid.es";"/contenido/entidadesYorganismos/CentrosAtencionSocial/CentrosSocialesComunitarios"
4568753;"Centro Social Polivalente de Vicálvaro";"";"Horario del centro:   De lunes a viernes de 9 a 14 horas y de 16 a 20:30 horas. Agosto, de lunes a viernes de 9 a 16 horas.  Sábados, domingos, festivos y los días 24 y 31 de diciembre, cerrado";"Sede del Consejo Territorial del distrito Sede de la Mesa de Infancia y Adolescencia Sede de la Mesa de Diálogo y la Convivencia Punto de Agente de Igualdad Sede del conjunto de actividades de Participación Ciudadana.  Dispone de 3 salas de reuniones, 13 despachos y 1 sala de exposición Wifi";"Consulta los siguientes enlaces:";"";"1";"http://www.madrid.es/sites/v/index.jsp?vgnextchannel=bfa48ab43d6bb410VgnVCM100000171f5a0aRCRD&vgnextoid=59c6ca957d152110VgnVCM1000000b205a0aRCRD";"REAL";"AVENIDA";"V";"12";"";"";"";"";"MADRID";"MADRID";"28032";"1";"CASCO H.VICALVARO";"19";"VICALVARO";"448490";"4472608";"40.40249219663602";"-3.6070177881676537";"917 602 468 (centralita)";"";"";"/contenido/entidadesYorganismos/CentrosCulturales"
56495;"Centro Sociocultural  Siena (Ciudad Lineal)";"";"Horario del centro:   De lunes a viernes, de 9 a 22 horas.  Sábados, domingos, festivos y agosto cerrado.   Horario de secretaría:   De lunes a miércoles, de 9 a 14:30 horas y de 15 a 17 horas. Viernes, de 9 a 14. Julio: de lunes a viernes, de 9 a 14 horas.  Fuera de este horario el centro permanecerá abierto durante la celebración de las actividades que se programen.";"Sala de lectura y estudio 3 aulas Zona wifi";"Metro: Quintana (línea 5)";"";"0";"http://www.madrid.es/sites/v/index.jsp?vgnextchannel=bfa48ab43d6bb410VgnVCM100000171f5a0aRCRD&vgnextoid=1114c2c6e051c010VgnVCM2000000c205a0aRCRD";"SIENA";"CALLE";"V";"52";"";"";"";"Local";"MADRID";"MADRID";"28027";"3";"QUINTANA";"15";"CIUDAD LINEAL";"444709";"4476040";"40.433168908505294";"-3.651871341017642";"914 039 011";"";"cscsiena@madrid.es";"/contenido/entidadesYorganismos/CentrosCulturales"
1936;"Centro Sociocultural Alberto Sánchez (Puente de Vallecas)";"";"Horario del centro:    De lunes a viernes, de 9 a 22 horas. Julio: de lunes a viernes, de 9 a 15 horas. Sábados, domingos, festivos y agosto, cerrado.   Horario de secretaría:   De lunes a viernes, de 9 a 13:45 y de 17 a 18:45 horas. Julio: de lunes a viernes, de 9 a 13:45 horas.  Fuera de este horario el centro permanecerá abierto durante la celebración de las actividades que se programen.";"Salón de actos / auditorio (Aforo salón de actos: 80 personas / aforo auditorio al aire libre: 130 personas) Salas de ensayo 7 aulas Zona wifi";"Metro: Buenos Aires (línea 1), Portazgo (línea 1).";"Consulte normas de acceso a los teatros en información relacionada.";"1";"http://www.madrid.es/sites/v/index.jsp?vgnextchannel=bfa48ab43d6bb410VgnVCM100000171f5a0aRCRD&vgnextoid=20a43d0b5e71c010VgnVCM1000000b205a0aRCRD";"RISCO DE PELOCHE";"CALLE";"V";"14";"";"";"";"";"MADRID";"MADRID";"28038";"6";"NUMANCIA";"13";"PUENTE DE VALLECAS";"444360";"4471652";"40.393619022093546";"-3.6556016835101834";"917 570 320";"";"cscalbertosanchez@madrid.es";"/contenido/entidadesYorganismos/CentrosCulturales"
72862;"Centro Sociocultural Alfonso XII (Fuencarral - El Pardo)";"";"Horario del centro: de lunes a viernes, de 8:30 a  21:30 horas. Sábdo, domingo y festivos, de 9:30 a 20:30 horas. Horario de secretaría: de lunes a viernes de 9 a 14 y de 16:30 a 20:30 horas.";"Sala exposiciones Salón de actos / auditorio Sala de lectura y estudio 4 Aulas Gimnasio Wi-Fi público";"";"";"1";"http://www.madrid.es/sites/v/index.jsp?vgnextchannel=bfa48ab43d6bb410VgnVCM100000171f5a0aRCRD&vgnextoid=b7d168540e41c010VgnVCM2000000c205a0aRCRD";"MIRA EL RIO";"CALLE";"V";"4";"";"";"";"";"MADRID";"MADRID";"28048";"1";"EL PARDO";"8";"FUENCARRAL-EL PARDO";"434105";"4485730";"40.519673311658686";"-3.7779055687726535";"913 762 060";"";"ccelpardo@madrid.es";"/contenido/entidadesYorganismos/CentrosCulturales"
1990;"Centro Sociocultural Almirante Churruca (Latina)";"Información genera: 91 509 05 81.  Correo electrónico: ccchurruca@madrid.es . Información sobre cursos y talleres:   Plataforma cursos y talleres Ayuntamiento de Madrid.  Trámites cursos y talleres Ayuntamiento de Madrid.";"Horario de verano:    Desde el 1 de julio hasta el 30 de octubre el horario de apertura es de 9 a 21 horas. El centro cierra por vacaciones del 1 al 24 de agosto ambos inclusive.    Horario de apertura del centro:  Lunes a viernes de 9 a 21:30 horas. Sábados de 9 a 13:30 horas.  Horario de atención al público:  Lunes a viernes de 9 a 14 horas y de 16:30 a 18:30 horas.";"Sala de exposiciones (hall y pasillos planta baja). Sala de lectura/estudio (120 puestos) Salón de actos y auditorio con aforo máximo para 100 personas.    9 aulas. ZonaWIFI. Estudio de grabación. Sala de mayores: abierta de lunes a jueves de 9 a 21:30 h. y viernes y sábados de 9 a 13:30 h.";"Metro: Línea 10. Estación: Aviación Española.  Autobuses de la EMT:  Líneas: 17 y 34.  Cercanías   RENFE:  Línea C 5. Estación: Las Águilas.";"";"1";"http://www.madrid.es/sites/v/index.jsp?vgnextchannel=bfa48ab43d6bb410VgnVCM100000171f5a0aRCRD&vgnextoid=76c43d0b5e71c010VgnVCM1000000b205a0aRCRD";"FUENTE DEL TIRO";"CALLE";"V";"72";"";"";"";"";"MADRID";"MADRID";"28024";"7";"LAS AGUILAS";"10";"LATINA";"433786";"4470559";"40.3829835905706";"-3.7800890564106613";"915 090 581 / 917 053 794";"";"ccchurruca@madrid.es";"/contenido/entidadesYorganismos/CentrosCulturales"
1974;"Centro Sociocultural Aula de Aire Libre (Puente de Vallecas)";"";"Horario del centro:    De lunes a viernes, de 9 a 22 horas. Julio: de lunes a viernes de 9 a 15 horas. Sábados, domingos, festivos y agosto, cerrado.   Horario de secretaría:   De lunes a viernes de 9 a 13:45 y de 17 a 18:45 horas. Julio, Semana Santa y Navidad: de lunes a viernes, de 9 a 13:45 horas.  Fuera de este horario el centro permanecerá abierto durante la celebración de las actividades que se programen.";"Préstamo de material de montaña (piolets, crampones, raquetas de nieve, cascos...). Martes y jueves, de 17 a 18:45 horas. Servicio gratuito. Más información en teléfonos 915 887 325. Durante el mes de julio, Semana Santa y periodo de Navidad, el préstamo será los martes y jueves de 9 a 13:45 horas y se realiza previa reserva telefónica en los teléfonos: 915 887 307 / 915 887 325. Agosto cerrado  Zona wifi.";"Metro: Portazgo (línea 1)";"";"0";"http://www.madrid.es/sites/v/index.jsp?vgnextchannel=bfa48ab43d6bb410VgnVCM100000171f5a0aRCRD&vgnextoid=314e1e79ee71c010VgnVCM1000000b205a0aRCRD";"SIERRA CARBONERA";"CALLE";"V";"74";"";"";"";"";"MADRID";"MADRID";"28053";"2";"SAN DIEGO";"13";"PUENTE DE VALLECAS";"443532";"4471268";"40.39010138870244";"-3.6653235716960015";"917 570 189 / 915 887 325 / 915 887 307";"";"aalibrepvallecas@madrid.es";"/contenido/entidadesYorganismos/CentrosCulturales"
1927;"Centro Sociocultural Blasco Ibáñez (Carabanchel)";"";"Horario del centro:   De lunes a viernes, de 8 a 22 horas.  Julio: de lunes a viernes, de 9 a 15 horas.  Sábados, domingos, festivos y agosto cerrado.   Horario de secretaría:   De lunes a jueves, de 10 a 143 horas y de 16:30 A 18 horas. Viernes, de 10 a 13. Julio: de lunes a viernes, de 10 a 13 horas.  Fuera de este horario el centro permanecerá abierto durante la celebración de las actividades que se programen.";"6 aulas Zona wifi Zona de vending";"Consulta los siguientes enlaces";"";"0";"http://www.madrid.es/sites/v/index.jsp?vgnextchannel=bfa48ab43d6bb410VgnVCM100000171f5a0aRCRD&vgnextoid=fb453d0b5e71c010VgnVCM1000000b205a0aRCRD";"SOLDADO JOSE MARIA REY";"CALLE";"V";"44";"";"";"";"";"MADRID";"MADRID";"28019";"3";"SAN ISIDRO";"11";"CARABANCHEL";"437813";"4471853";"40.39496102590205";"-3.7327634025142253";"914 280 555";"";"ccblascoibanez@madrid.es";"/contenido/entidadesYorganismos/CentrosCulturales"
1949;"Centro Sociocultural Bohemios (Villaverde)";"";"De secretaría:    Horario de mañana: de lunes a viernes de 9 a 14 horas . Horario de tarde: de lunes a jueves de 17 a 19 horas.   Durante el mes de julio el horario será de 9 a 14 horas.   En el mes de agosto el centro permanece cerrado.   Teléfonos:    De secretaría: Teléfono 917 109 260 / 917 100 558 en el horario que ya consta.   Auxiliares de información: Teléfono 917 109 263 en horario de 9:00 a 21:00 h.";"Sala de exposiciones Salón de actos / auditorio (aforo): 158 butacas y 2 para personas con movilidad reducida (silla de ruedas) 8 aulas Zona wifi Ascensor en ambos edificios. Aseos adaptados. Cambiador de bebe en aseo de señoras, planta baja del edificio A.";"Metro:  Ciudad de los Ángeles (Línea 3)";"";"1";"http://www.madrid.es/sites/v/index.jsp?vgnextchannel=bfa48ab43d6bb410VgnVCM100000171f5a0aRCRD&vgnextoid=42753d0b5e71c010VgnVCM1000000b205a0aRCRD";"LOS BOHEMIOS";"CALLE";"V";"1";"";"";"";"";"MADRID";"MADRID";"28041";"5";"LOS ANGELES";"17";"VILLAVERDE";"441066";"4467547";"40.35639654251886";"-3.6940501846610894";"917 109 260";"";"ccbohemios@madrid.es";"/contenido/entidadesYorganismos/CentrosCulturales"
1967;"Centro Sociocultural Ciudad Lineal";"";"Horario del centro:   De lunes a viernes, de 9 a 22 horas.  Julio: de lunes a viernes, de 9 a 15 horas.  Sábados, domingos, festivos y agosto cerrado.   Horario de secretaría:   De lunes a viernes, de 9 a 14 horas.  Fuera de este horario el centro permanecerá abierto durante la celebración de las actividades que se programen.";"Sala de lectura y estudio 7 aulas Zona wifi";"Consulta los siguientes enlaces.";"";"1";"http://www.madrid.es/sites/v/index.jsp?vgnextchannel=bfa48ab43d6bb410VgnVCM100000171f5a0aRCRD&vgnextoid=16f81e79ee71c010VgnVCM1000000b205a0aRCRD";"POETA BLAS DE OTERO";"CALLE";"V";"81";"";"";"";"";"MADRID";"MADRID";"28017";"1";"VENTAS";"15";"CIUDAD LINEAL";"444717";"4474895";"40.42285715768873";"-3.651680076113881";"917 817 494";"";"cscciudadlineal@madrid.es";"/contenido/entidadesYorganismos/CentrosCulturales"
10344149;"Centro Sociocultural Clara Campoamor (Retiro)";"El Centro Sociocultural Clara Campoamor se encuentra en uno de los edificios de la Junta Municipal del Distrito de Retiro (el edificio más moderno). En este edificio, además del Centro Sociocultural se encuentran las oficinas de Línea Madrid y los despachos de los grupos políticos de la Junta.";"Horario del centro:   De lunes a viernes, de 9 a 21 horas. Sábados y domingos, de 10 a 14 horas. 25 de diciembre, 1 y 6 de enero y 1 de mayo, cerrado. 24 y 31 de diciembre, de 9 a 14 horas.    Horario de secretaría:   De lunes a viernes, de 9 a 14 horas.   Fuera de este horario el centro permanecerá abierto durante la celebración de las actividades que se programen";"Sala de exposiciones Maruja Mallo 3 salas de estudio y lectura 3 aulas  Zona wifi    Se utilizan también otros espacios de las plantas segunda y tercera para diversas actividades culturales y para cesiones temporales a diferentes asociaciones y grupos culturales, además de las reuniones de las mesas de los foros locales.";"Metro: Pacífico (línea 1 y 6)";"";"1,4,5";"http://www.madrid.es/sites/v/index.jsp?vgnextchannel=bfa48ab43d6bb410VgnVCM100000171f5a0aRCRD&vgnextoid=0c057ab5c83db510VgnVCM2000001f4a900aRCRD";"DAOIZ Y VELARDE";"CENTRO CULTURAL";"T";"";"1ª";"";"";"";"MADRID";"MADRID";"";"";"";"";"DISTRITO";"442495";"4472597";"40.401997713964725";"-3.677655206290768";"915 886 348";"";"culturetiro@madrid.es";"/contenido/entidadesYorganismos/CentrosCulturales"
118935;"Centro Sociocultural Cánovas del Castillo (Usera)";"";"Horario del centro:    De lunes a viernes, de 9 a 14 y de 15 a 21:30 horas. Sábados, de 9 a 14 horas.  Domingos y festivos y agosto, cerrado.   Horario de secretaría:   De lunes a jueves, de 10 a 14 horas y de 16:30 a 19 horas. Viernes, de 10 a 14 horas.  Julio: de lunes a viernes, de 10 a 14 horas.  Fuera de este horario el centro permanecerá abierto durante la celebración de las actividades que se programen.";"1 sala de exposiciones (superficie de 39 m2) 1 sala de lectura y estudio 6 aulas Zona wifi";"Metro: Almendrales (línea 3)";"";"1";"http://www.madrid.es/sites/v/index.jsp?vgnextchannel=bfa48ab43d6bb410VgnVCM100000171f5a0aRCRD&vgnextoid=1087cbf06c81c010VgnVCM1000000b205a0aRCRD";"JULIO AGUIRRE";"CALLE";"V";"10";"";"";"";"";"MADRID";"MADRID";"28026";"4";"ALMENDRALES";"12";"USERA";"440579";"4470866";"40.38627312379031";"-3.700074755609488";"915 005 489";"";"canovascastillocs@madrid.es";"/contenido/entidadesYorganismos/CentrosCulturales"
1941;"Centro Sociocultural Eduardo Chillida (Moratalaz)";"";"Horario del centro:   De lunes a viernes, de 9 a 22 horas. Sábados, de 10 a 14 horas y de 16 a 22 horas.  Julio: de lunes a viernes, de 9 a 14 horas.  Domingos, festivos, agosto y sábados de julio y septiembre, cerrado.   Horario de secretaría:   De lunes a viernes, de 9 a 13:30 horas y de 17 A 18:30 horas. Julio: de lunes a viernes, de 9 a 14 horas.  Fuera de este horario el centro permanecerá abierto durante la celebración de las actividades que se programen.";"Sala de exposiciones 9 aulas 2 salas polivalentes  Zona wifi   2 gimnasios";"Metro: Vinateros (línea 9)";"";"1";"http://www.madrid.es/sites/v/index.jsp?vgnextchannel=bfa48ab43d6bb410VgnVCM100000171f5a0aRCRD&vgnextoid=01963d0b5e71c010VgnVCM1000000b205a0aRCRD";"ARROYO BELINCOSO";"CALLE";"V";"9";"";"";"";"";"MADRID";"MADRID";"28030";"4";"MEDIA LEGUA";"14";"MORATALAZ";"444591";"4473396";"40.40934483353835";"-3.653036718771371";"913 339 141";"";"ccechillida@madrid.es";"/contenido/entidadesYorganismos/CentrosCulturales"
26904;"Centro Sociocultural El Greco (Latina)";"Información general: 91 479 32 61  y 91 479 31 50.  Correo electrónico: ccgreco@madrid.es  Información sobre cursos y talleres:   Catálogo de talleres culturales.";"Horario de apertura del centro:   Lunes a viernes de 9 a 21:30 horas. Sábados de 9 a 13:30 horas.   Horario de atención al público:   Lunes a viernes de 9:00 a 14 horas y de 16:00 a 18:30 horas.   Horario de verano:   Julio, agosto y septiembre de 9 a 20:30 de lunes a viernes.";"Sala de exposiciones. Sala de lectura y estudio . Salón de actos y auditorio con aforo máximo para 100 personas.    5 aulas. Cafetería. Zona WIFI.";"Metro: Línea 6, estación Lucero y línea 10, estación Batán.  Autobuses de la   EMT:  Líneas: 33, 36, 39 y 65.";"";"1";"http://www.madrid.es/sites/v/index.jsp?vgnextchannel=bfa48ab43d6bb410VgnVCM100000171f5a0aRCRD&vgnextoid=cae2b3e42751c010VgnVCM2000000c205a0aRCRD";"EL GRECO";"CALLE";"V";"29";"";"";"";"";"MADRID";"MADRID";"28011";"3";"LUCERO";"10";"LATINA";"436578";"4473235";"40.407316328180464";"-3.747465416906973";"914 793 261 / 914 793 150";"";"ccgreco@madrid.es";"/contenido/entidadesYorganismos/CentrosCulturales"
1944;"Centro Sociocultural Francisco Fatou (Villa de Vallecas)";"";"Horario del centro:    De lunes a viernes, de 9 a 21 horas. Sábados, de 9 a 13:30 horas Agosto, de lunes a viernes, de 9 a 14:30 horas.  Domingos y festivos cerrado.   Horario de secretaría:   De lunes a viernes, de 9 a 13:30 y de 16 a 20 horas.  Julio y agosto, de lunes a viernes, de 9 a 13:30 horas.  Fuera de este horario el centro permanecerá abierto durante la celebración de las actividades que se programen.";"Sala de exposiciones Salón de actos / auditorio (aforo 94 butacas) 6 aulas Zona wifi";"Metro: Villa de Vallecas (línea 1)";"";"1";"http://www.madrid.es/sites/v/index.jsp?vgnextchannel=bfa48ab43d6bb410VgnVCM100000171f5a0aRCRD&vgnextoid=d9e73d0b5e71c010VgnVCM1000000b205a0aRCRD";"MANUEL VELEZ";"CALLE";"V";"10";"";"";"";"";"MADRID";"MADRID";"28031";"1";"CASCO H.VALLECAS";"18";"VILLA DE VALLECAS";"447107";"4470075";"40.37959032098656";"-3.62310875744905";"913 806 620";"";"ccfranciscofatou@madrid.es";"/contenido/entidadesYorganismos/CentrosCulturales"
1926;"Centro Sociocultural García Lorca (Carabanchel)";"";"Horario del centro:   De lunes a sábado, de 8:15 a 22:15 horas. Domingo, de 8 a 15 horas (variable). Festivos y agosto cerrado.   Horario de secretaría:   De lunes a jueves, de 10 a 13 horas y de 16:30 A 18 horas. Viernes, de 10 a 13 horas. Julio: de lunes a viernes, de 10 a 13 horas.  Fuera de este horario el centro permanecerá abierto durante la celebración de las actividades que se programen.";"Salón de actos / auditorio (aforo 80 personas) 6 aulas 3 gimnasios Zona vending Zona wifi";"Metro: Carabanchel Alto (línea 11)";"";"1";"http://www.madrid.es/sites/v/index.jsp?vgnextchannel=bfa48ab43d6bb410VgnVCM100000171f5a0aRCRD&vgnextoid=e6773d0b5e71c010VgnVCM1000000b205a0aRCRD";"EUGENIA DE MONTIJO";"CALLE";"V";"105";"";"";"";"";"MADRID";"MADRID";"28044";"6";"BUENAVISTA";"11";"CARABANCHEL";"436243";"4469562";"40.374208184505";"-3.7510283910283873";"915 110 370";"";"ccgarcialorca@madrid.es";"/contenido/entidadesYorganismos/CentrosCulturales"
1947;"Centro Sociocultural José de Espronceda (Tetuán)";"";"Horario del centro:   De lunes a viernes, de 9 a 14 y de 16 a 21 horas.  Sábados, domingos, festivos y agosto cerrado.   Horario de secretaría:   De lunes a jueves, de 9:30 a 13:30 horas y de 16:30 A 18 horas. Viernes, de 9:30 a 13:30. Julio: de lunes a viernes, de 9:30 a 13:30 horas.  Fuera de este horario el centro permanecerá abierto durante la celebración de las actividades que se programen.";"Sala de exposiciones 1 Salón de actos / auditorio. Aforo 96 personas (este aforo podrá verse modificado) 6 aulas Zona wifi";"Metro: Cuatro Caminos (líneas 1, 2, 6)";"";"1";"http://www.madrid.es/sites/v/index.jsp?vgnextchannel=bfa48ab43d6bb410VgnVCM100000171f5a0aRCRD&vgnextoid=23881e79ee71c010VgnVCM1000000b205a0aRCRD";"ALMANSA";"CALLE";"V";"9";"";"";"";"";"MADRID";"MADRID";"28039";"1";"BELLAS VISTAS";"6";"TETUAN";"440258";"4477792";"40.44864332758775";"-3.704513191828797";"915 536 160 / 915 536 480";"";"cscjespronceda@madrid.es";"/contenido/entidadesYorganismos/CentrosCulturales"
124354;"Centro Sociocultural Juvenil de Moratalaz";"";"Horario del centro:   De lunes a viernes, de 9 a 14 y de 15:05 a 21:05 horas. Sábados, de 10 a 14 y de 16 a 22 horas. Domingos, de 10 a 14 y de 16:30 a 20:30. Festivos, de 10 a 14.   Horario de secretaría:   De lunes a viernes, de 9 a 14 y de 17 a 18:30 horas.    Horarios de verano: consulta el apartado más información y documentación asociada. Fuera de este horario el centro permanecerá abierto durante la celebración de las actividades que se programen.";"Sala de lectura y estudio 9 aulas Zona wifi";"Metro: Pavones (línea 9)";"HORARIOS DE VERANO   Julio:   De lunes a viernes, de 9:05 a 13:50 y de 15:05 a 20:50 horas. Sábados, de 16:05 a 21:50 Domingos y festivos cerrado.   Agosto:   De lunes a viernes, de 9:05 a 13:50 y de 15:05 a 20:50 Sábados, domingos y festivos cerrado.   Plan de calor-refugio climático:   De lunes a viernes, de 9:05 a 20:50 horas ininterrumpidamente. Julio: sábados, de 16:05 a 21 horas ininterrumpidamente. Domingos, festivos y sábados de agosto cerrado.";"1";"http://www.madrid.es/sites/v/index.jsp?vgnextchannel=bfa48ab43d6bb410VgnVCM100000171f5a0aRCRD&vgnextoid=bf388899fc81c010VgnVCM1000000b205a0aRCRD";"FUENTE CARRANTONA";"CALLE";"V";"10";"";"";"";"";"MADRID";"MADRID";"28030";"1";"PAVONES";"14";"MORATALAZ";"445977";"4472270";"40.39928542551079";"-3.636600379403484";"915 880 459";"";"ccjmoratalaz@madrid.es";"/contenido/entidadesYorganismos/CentrosCulturales"
1965;"Centro Sociocultural Juvenil de Usera";"";"Horario del centro:   De lunes a viernes de 9 a 14 y de 16 a 21 horas. Agosto cerrado.  Horario de secretaría:  De lunes a jueves, de 10 a 14 horas y de 17 a 19 horas. Viernes, de 10 a 14 horas.  Julio, de lunes a viernes de 10 a 14 horas. Agosto cerrado.  Fuera de este horario el centro permanecerá abierto durante la celebración de las actividades que se programen.";"Aulas Zona wifi";"Metro: Usera (línea 6)";"";"1";"http://www.madrid.es/sites/v/index.jsp?vgnextchannel=bfa48ab43d6bb410VgnVCM100000171f5a0aRCRD&vgnextoid=876e1e79ee71c010VgnVCM1000000b205a0aRCRD";"CUESTA";"CALLE";"V";"4";"";"";"";"";"MADRID";"MADRID";"28026";"5";"MOSCARDO";"12";"USERA";"439956";"4471270";"40.38986587050054";"-3.707459143903564";"913 920 541";"";"cjusera@madrid.es";"/contenido/entidadesYorganismos/CentrosCulturales"
11189796;"Centro Sociocultural Las Tablas (Fuencarral - El Pardo)";"";"Lunes y miércoles de 9:30 a 13:30 y de 16:30 a 19:30 h. Martes y jueves de 9:30 a 14:30 h. Viernes cerrado";"";"Metro Las Tablas Línea 10 (L10) Autobuses 172, 175 y 176";"Teléfono 915 886 883 Correo electrónico cultufuencarral@madrid.es";"1";"http://www.madrid.es/sites/v/index.jsp?vgnextchannel=bfa48ab43d6bb410VgnVCM100000171f5a0aRCRD&vgnextoid=f766b6f6751c2710VgnVCM1000001d4a900aRCRD";"CAMINO DE SANTIAGO";"AVENIDA";"V";"39";"";"";"";"";"MADRID";"MADRID";"28050";"6";"VALVERDE";"8";"FUENCARRAL-EL PARDO";"442867";"4483048";"40.496178544904275";"-3.6742173844664605";"915886883";"";"cultufuencarral@madrid.es";"/contenido/entidadesYorganismos/CentrosCulturales"
102131;"Centro Sociocultural Latina";"Información general: 91 509 54 70.  Correo electrónico: juvenlatina@madrid.es . Información sobre cursos y talleres:   Plataforma cursos y talleres Ayuntamiento de Madrid.  Trámites cursos y talleres Ayuntamiento de Madrid.";"El horario de apertura del Centro Sociocultural Latina es:   Mes de julio de 9 a 21 h de lunes a viernes. Desde el 1 hasta el 24 de agosto Cierre del Centro por vacaciones. Desde el 25 de agosto al 30 de septiembre de 9 a 21 h.  Horario de apertura del centro:  Lunes a Viernes de 9 a 21:00 horas. Sábados de 9 a 13:30 horas.  Horario de atención al público:  Lunes a Viernes de 9 a 14 horas.";"1 sala de lectura. 1 sala de exposiciones. 6 aulas. ZonaWIFI.";"Autobuses EMT:  Línea 155.  Cercanías RENFE:  Línea C 5. Estación: Maestra Justa Freire-Polideportivo Aluche (antigua estación de Fanjul).";"En la misma sede:   Sala de Estudio Latina.";"1";"http://www.madrid.es/sites/v/index.jsp?vgnextchannel=bfa48ab43d6bb410VgnVCM100000171f5a0aRCRD&vgnextoid=a4ed8899fc81c010VgnVCM1000000b205a0aRCRD";"RODRIGO DE ARANA";"CALLE";"V";"50";"";"";"";"";"MADRID";"MADRID";"28044";"7";"LAS AGUILAS";"10";"LATINA";"434982";"4470177";"40.3796366471018";"-3.7659492448759053";"915 095 470 / 915 095 471";"";"juvenlatina@madrid.es";"/contenido/entidadesYorganismos/CentrosCulturales"
1961;"Centro Sociocultural Luis Gonzaga (Chamartín)";"";"Horario del centro:    De lunes a domingo, de 9 a 21:30 horas.  Festivos y del 1 al 24 de agosto, cerrado.   Horario de secretaría:   De lunes a jueves, de 9:30 a 14 y de 16:30 a 18:30 horas. Viernes, de 9:30 a 14 y de 16:30 a 17:30 horas.   Julio: de lunes a viernes, de 9 a 14 horas.   Fuera de este horario el centro permanecerá abierto durante la celebración de las actividades que se programen.";"2 salas de lectura y estudio 7 aulas Zona wifi";"Metro: Cruz del Rayo (línea 9)";"";"1";"http://www.madrid.es/sites/v/index.jsp?vgnextchannel=bfa48ab43d6bb410VgnVCM100000171f5a0aRCRD&vgnextoid=ba8b3d232e91f010VgnVCM1000000b205a0aRCRD";"PRINCIPE DE VERGARA";"CALLE";"V";"142";"";"";"";"";"MADRID";"MADRID";"28002";"3";"CIUDAD JARDIN";"5";"CHAMARTIN";"442496";"4477359";"40.444902405213526";"-3.6780788363404526";"915 886 596 / 915 885 219";"";"juvenlgonzaga@madrid.es";"/contenido/entidadesYorganismos/CentrosCulturales"
1909;"Centro Sociocultural Maestro Alonso (Salamanca)";"";"Horario del centro:  De lunes a viernes, de 8 a 22 horas. Sábados y domingos, de 10 a 21 horas. Festivos cerrado.   Horario de secretaria:   De lunes a jueves, de 9 a 14 horas y de 15 a 18 horas. Viernes, de 9 a 15:30 horas. Julio y agosto de lunes a viernes, de 8 a 15 horas.   Fuera de este horario el centro permanecerá abierto durante la celebración de las actividades que se programen.";"Salón de actos / auditorio (aforo 150 personas) Salas Polivalentes para actividades 14 aulas Zona wifi Cafetería";"Metro: Ventas (líneas 2, 5)";"";"1";"http://www.madrid.es/sites/v/index.jsp?vgnextchannel=bfa48ab43d6bb410VgnVCM100000171f5a0aRCRD&vgnextoid=783f1e79ee71c010VgnVCM1000000b205a0aRCRD";"MAESTRO ALONSO";"CALLE";"V";"6";"";"";"";"";"MADRID";"MADRID";"28028";"3";"FUENTE DEL BERRO";"4";"SALAMANCA";"443605";"4475629";"40.4293927571053";"-3.664846244443566";"917 268 800";"";"ccmaestroalonso@tritoma.es";"/contenido/entidadesYorganismos/CentrosCulturales"
170066;"Centro Sociocultural Marconi (Villaverde)";"";"El Centro Sociocultural Marconi estará abierto de lunes a viernes de 9:00 a 21:00 h ininterrumpidamente, excepto en el mes de agosto que permanecerá cerrado.  Secretaría:   De mañana de lunes a viernes de 9:30 a 13:30. De tarde de lunes a jueves de 16:45 a 19:15. Durante el mes de julio el horario será de lunes a viernes de 9:00 a 14:00 horas.";"Sala de exposiciones Sala de lectura y estudio 3 aulas Zona wifi Punto de reciclaje";"Cercanías Renfe: San Cristóbal Industrial (Línea C3).";"";"1";"http://www.madrid.es/sites/v/index.jsp?vgnextchannel=bfa48ab43d6bb410VgnVCM100000171f5a0aRCRD&vgnextoid=6cb0085f5181c010VgnVCM1000000b205a0aRCRD";"COLONIA MARCONI";"ACCESO";"V";"4";"";"";"";"";"MADRID";"MADRID";"28021";"1";"VILLAVERDE ALTO C.H.";"17";"VILLAVERDE";"440472";"4465148";"40.3347558542528";"-3.7008037217338274";"917 100 232";"";"ccmarconi@madrid.es";"/contenido/entidadesYorganismos/CentrosCulturales"
1970;"Centro Sociocultural Miguel de Cervantes (San Blas - Canillejas)";"";"Horario del centro:    De lunes a viernes, de 10 a 21 horas.  Sábados, domingos y festivos, de 10 a 14:30' y de 16:30 a 20  horas. 24, 25, 31 de diciembre y 1 de enero, cerrado.    Horario de s ecret aría:   De lunes viernes, de 10 a 14 horas.  Junio y septiembre, de 10 a 14 horas y de 17 a 19 horas.   Fuera de este horario el centro permanecerá abierto durante la celebración de las actividades que se programen.";"Sala de exposiciones 2 salas de lectura y estudio Salón de actos / auditorio (aforo 125 personas) 3 aulas Zona wifi";"Consultar los siguientes enlaces:";"";"1";"http://www.madrid.es/sites/v/index.jsp?vgnextchannel=bfa48ab43d6bb410VgnVCM100000171f5a0aRCRD&vgnextoid=24be1e79ee71c010VgnVCM1000000b205a0aRCRD";"ALIAGA";"CALLE";"V";"5";"";"";"";"";"MADRID";"MADRID";"28022";"7";"CANILLEJAS";"20";"SAN BLAS-CANILLEJAS";"448148";"4476402";"40.4366557020283";"-3.6113517282299217";"917 430 078";"";"ccmcervantes@madrid.es";"/contenido/entidadesYorganismos/CentrosCulturales"
5514552;"Centro Sociocultural Montecarmelo (Fuencarral - El Pardo)";"";"Centro: De lunes a viernes de 8:30 a 15 y de 16 a 21:30h y sábados 9 a 15 y de 16 a 21h. Domingos y festivos, de 10 a 15h.  Secretaría: De lunes a viernes  de 9 a 14:30 horas y de 16:30 a 18:30 horas.  Agosto:  De lunes a viernes de 8:45 a 13:45h y de 16:45 a 21:00h. Sábados, de 9:15 a 13:45h y de 16:30 a 21:00h. Domingos y festivos cerrado.";"";"Bus: EMT 134 y 178. Interurbano 712, 713 y 716 Metro L10 montecarmelo (20 minutos a pie)";"Sala de exposiciones Salón de Actos Sala de lectura y estudio Centro de Interpretación de la Naturaleza Wi-Fi público";"1";"http://www.madrid.es/sites/v/index.jsp?vgnextchannel=bfa48ab43d6bb410VgnVCM100000171f5a0aRCRD&vgnextoid=30f2b51ae6295210VgnVCM2000000c205a0aRCRD";"M-607 Km 13 L-10";"Carretera";"T";"";"";"";"";"Acceso por Av. Santuario de Valverde, frente al número 114b";"MADRID";"MADRID";"28049";"8";"EL GOLOSO";"8";"FUENCARRAL-EL PARDO";"441892";"4485296";"40.515712291624084";"-3.6860532895354448";"917 364 151";"";"ccmontecarmelo@madrid.es";"/contenido/entidadesYorganismos/CentrosCulturales"
1964;"Centro Sociocultural Oporto (Carabanchel)";"";"Horario del centro:   De lunes a sábado, de 8 a 22 horas. Domingos, de 11 a 15 horas.  Festivos y agosto cerrado.   Horario de secretaría:   De lunes a jueves, de 10 a 13 horas y de 16:30 A 18 horas. Viernes, de 10 a 13 horas. Julio: de lunes a viernes, de 10 a 13 horas.  Fuera de este horario el centro permanecerá abierto durante la celebración de las actividades que se programen.";"Sala de lectura y estudio Salón de actos / auditorio (aforo 106 personas) 4 aulas  (1 polivalente, 1 informática y 2 lectivas) 1 sala de baile 2 gimnasios. Zona wifi";"Metro: Oporto (líneas 5, 6) , Opañel (línea 6)";"";"2";"http://www.madrid.es/sites/v/index.jsp?vgnextchannel=bfa48ab43d6bb410VgnVCM100000171f5a0aRCRD&vgnextoid=357a1e79ee71c010VgnVCM1000000b205a0aRCRD";"OPORTO";"AVENIDA";"V";"78";"";"";"";"";"MADRID";"MADRID";"28019";"2";"OPAÑEL";"11";"CARABANCHEL";"438231";"4470946";"40.38682740756541";"-3.7277493066262406";"914 603 801";"";"ccoporto@madrid.es";"/contenido/entidadesYorganismos/CentrosCulturales"
1924;"Centro Sociocultural Rafael de León (Fuencarral - El Pardo)";"";"Centro: de lunes a viernes de 9:00 a 14:00 y de 16:00 a 21:00  h   Secretaría: de lunes a jueves de 9:00 a 13:30 y de 16:00 a 19:30 h Viernes de 9:00 a 13:30 y de 16:00 a 18:00 h.    Domingo y festivos cerrado. Agosto cerrado.";"Salón de actos / auditorio 8 aulas Zona wifi";"Metro: Avenida de la Ilustración (línea 7) Bus: 49 , 64 , 67 , 83 , 133";"Teléfono de secretaría 917 310 351";"1";"http://www.madrid.es/sites/v/index.jsp?vgnextchannel=bfa48ab43d6bb410VgnVCM100000171f5a0aRCRD&vgnextoid=7e0b1e79ee71c010VgnVCM1000000b205a0aRCRD";"ISLA DE ONS";"CALLE";"V";"14";"";"";"";"";"MADRID";"MADRID";"28035";"3";"PEÑA GRANDE";"8";"FUENCARRAL-EL PARDO";"438850";"4481314";"40.48025613358832";"-3.7214686777952974";"917 310 350";"";"ccrleon@madrid.es";"/contenido/entidadesYorganismos/CentrosCulturales"
43311;"Centro Sociocultural Rosario de Acuña (Latina)";"Información general: 91 464 93 04.  Correo electrónico: ccrosarioacuna@madrid.es  Información sobre cursos y talleres:   Plataforma cursos y talleres Ayuntamiento de Madrid.  Trámites cursos y talleres Ayuntamiento de Madrid.";"Horarios de apertura del centro:   Lunes a Viernes de 9 a 21:30 h. Sábados de 9 a 13:30 h.  Salas de lectura abiertas de 9:30 a 21 h.  Atención al público: de 9 a 14 h y de 17 a 18:30 h, de lunes a viernes.   Horario de verano:   De julio a septiembre de 9 a 21 h, de lunes a viernes (cerrado del 1 al 24 de agosto). Salas de lectura abiertas de 9:30 a 20 h.";"Sala de exposiciones. 2 salas de lectura y estudio. Salón de actos y auditorio con aforo máximo para 90 personas. 8 aulas. Zona WIFI.";"Metro: Línea 6. Estación: Alto de Extremadura.  Autobuses de la EMT:  Líneas: 119,138 y 158.";"En la misma sede están ubicadas las salas de estudio 'Escritor Pedro de Répide' y 'Arquitecto Juan de Herrera' con 16 puestos de lectura cada una.";"1";"http://www.madrid.es/sites/v/index.jsp?vgnextchannel=bfa48ab43d6bb410VgnVCM100000171f5a0aRCRD&vgnextoid=2bae598d1351c010VgnVCM1000000b205a0aRCRD";"MARIA DEL CARMEN";"CALLE";"V";"65";"";"";"";"";"MADRID";"MADRID";"28011";"2";"PUERTA DEL ANGEL";"10";"LATINA";"437830";"4473132";"40.40647389284976";"-3.7327010920242043";"914 649 304";"";"ccrosarioacuna@madrid.es";"/contenido/entidadesYorganismos/CentrosCulturales"
1950;"Centro Sociocultural San Cristóbal de los Ángeles (Villaverde)";"";"El Centro Sociocultural San Cristóbal de los Ángeles estará abierto de lunes a viernes de 9:00 a 21:00 h ininterrumpidamente. En el mes de agosto permanecerá abierto solamente para la actividad de Campamento Urbano `Viva el verano&amp;acute;.  Horario de secretaría:   de mañana, de lunes a viernes de 9:00 a 13:00 h. de tarde, de lunes a jueves de 17:00 a 19:00 h.  Durante el mes de julio solamente estará atendido por auxiliares de información.";"Sala de exposiciones Sala de lectura y estudio Salón de actos (aforo): 76 butacas 6 aulas Zona wifi";"Metro: San Cristóbal (línea 3).  Cercanías Renfe: San Cristóbal (C3).";"";"1";"http://www.madrid.es/sites/v/index.jsp?vgnextchannel=bfa48ab43d6bb410VgnVCM100000171f5a0aRCRD&vgnextoid=7f4a79262ef5d010VgnVCM1000000b205a0aRCRD";"PINAZO";"PLAZA";"V";"9";"1ª";"";"";"";"MADRID";"MADRID";"28021";"2";"SAN CRISTOBAL";"17";"VILLAVERDE";"441274";"4466022";"40.34268360439146";"-3.6914402549812873";"917 100 692 / 917 100 413";"";"ccscangeles@madrid.es";"/contenido/entidadesYorganismos/CentrosCulturales"
1935;"Centro Sociocultural San Fermín (Usera)";"";"Horario del centro:    De lunes a viernes, de 9 a 14 horas y de 16 a 22 horas. Julio: de lunes a viernes, de 9 a 14 horas y de 16 a 21 horas.  Sábados, domingos, festivos y agosto, cerrado.   Horario de secretaría:   De lunes a jueves, de 9:30 a 14 horas y de 16 a 19 horas. Viernes, de 9:30 a 14 horas.  Julio: de lunes a viernes, de 9 a 14 horas.  Fuera de este horario el centro permanecerá abierto durante la celebración de las actividades que se programen.";"6 Aulas Zona wifi Se utiliza el gimnasio grande para realizar teatro infantil una vez al mes";"Metro: San Fermín - Orcasur (línea 3)";"";"1";"http://www.madrid.es/sites/v/index.jsp?vgnextchannel=bfa48ab43d6bb410VgnVCM100000171f5a0aRCRD&vgnextoid=1b5b1e79ee71c010VgnVCM1000000b205a0aRCRD";"ESTAFETA";"CALLE";"V";"33";"";"";"";"";"MADRID";"MADRID";"28041";"3";"SAN FERMIN";"12";"USERA";"441247";"4469238";"40.371654294908154";"-3.692056897625109";"917 920 111";"";"ccsanfermin@madrid.es";"/contenido/entidadesYorganismos/CentrosCulturales"
117716;"Centro Sociocultural Santa Petronila (Villaverde)";"";"El Centro Sociocultural Santa Petronila estará abierto de 9:00 a 21:30 h ininterrumpidamente, de lunes a viernes, y los sábados de 9:30 a 13:30.  Horario de secretaría:   Horario de mañana: de lunes a viernes de 9:30 a 14:00 h. Horario de tarde: de lunes a jueves de 17:00 a 19:00 h. Durante el mes de julio el horario será de 9:00 a 14:00 horas, de lunes a viernes.   Teléfonos de atención al público:   Información General: 917 791 204 ó ccspetronila@madrid.es  Secretaría: 915 881 237 / 917 100 309";"Sala de lectura y estudio Salón de actos / auditorio (aforo): 146 butacas y 3 para personas con movilidad reducida ( silla de ruedas)  Zonas de exposiciones en planta baja y segunda  16 aulas Ascensor Aseos adaptados Cambiador de bebe en planta baja Zona wifi";"Metro: Villaverde Bajo Cruce (línea 3)  Cercanías Renfe: Villaverde Bajo (línea C3 y C4)";"En la misma sede se encuentra la Oficina de información juvenil y el Espacio de Igualdad Clara Campoamor.";"1";"http://www.madrid.es/sites/v/index.jsp?vgnextchannel=bfa48ab43d6bb410VgnVCM100000171f5a0aRCRD&vgnextoid=03f7cbf06c81c010VgnVCM1000000b205a0aRCRD";"MARIA MARTINEZ OVIOL";"CALLE";"V";"12";"";"";"";"";"MADRID";"MADRID";"28021";"4";"LOS ROSALES";"17";"VILLAVERDE";"441276";"4466932";"40.350886994103284";"-3.6914981254409645";"917 791 204";"";"ccspetronila@madrid.es";"/contenido/entidadesYorganismos/CentrosCulturales"
1937;"Centro Sociocultural Talleres de Creatividad (Puente de Vallecas)";"";"Horario del centro:    De lunes a viernes, de 9 a 22 horas. Sábados, de 10 a 14 horas. Julio, de lunes a viernes de 9 a 15 horas.  Domingos y festivos y agosto, cerrado.   Horario de secretaría:   De lunes a viernes, de 9 a 13:45 y de 17 a 18:45 horas.  Julio, Semana Santa y Navidad: de lunes a viernes, de 9 a 13:45 horas.  Fuera de este horario el centro permanecerá abierto durante la celebración de las actividades que se programen.";"Sala de lectura y estudio. 7 aulas. Zona wifi.";"Metro: Nueva Numancia, Portazgo (línea 1)";"";"0";"http://www.madrid.es/sites/v/index.jsp?vgnextchannel=bfa48ab43d6bb410VgnVCM100000171f5a0aRCRD&vgnextoid=b7ab1e79ee71c010VgnVCM1000000b205a0aRCRD";"SIERRA CARBONERA";"CALLE";"V";"74";"";"";"";"";"MADRID";"MADRID";"28053";"2";"SAN DIEGO";"13";"PUENTE DE VALLECAS";"443532";"4471268";"40.39010138870244";"-3.6653235716960015";"917 570 189 / 917 570 240";"";"ctcepvallecas@madrid.es";"/contenido/entidadesYorganismos/CentrosCulturales"
1971;"Centro Sociocultural Teresa de Calcuta (Barajas)";"";"Horario del centro:   De lunes a sábado, de 7 a 22 horas. Sábados, de 10 a 14 y de 16 a 21 horas. Domingos y festivos, de 10 a 14 y de 16 a 20 horas.  Julio y agosto: de lunes a viernes, de 7 a 22 horas. Sábados, domingos y festivos, de 10 a 14 horas.   Horario de secretaría:   De lunes a viernes, de 9 a 14 horas y de 15 a 17 horas.   Fuera de este horario el centro permanecerá abierto durante la celebración de las actividades que se programen.";"Sala de exposiciones Sala de lectura 8 aulas Zona wifi";"Metro: Alameda de Osuna (línea 5)";"";"1";"http://www.madrid.es/sites/v/index.jsp?vgnextchannel=bfa48ab43d6bb410VgnVCM100000171f5a0aRCRD&vgnextoid=f50e1e79ee71c010VgnVCM1000000b205a0aRCRD";"NAVIO";"PLAZA";"V";"4";"";"";"";"";"MADRID";"MADRID";"28042";"1";"ALAMEDA DE OSUNA";"21";"BARAJAS";"450174";"4478461";"40.455320740232835";"-3.5876301858469386";"913 295 920";"";"ccteresacalcuta@madrid.es";"/contenido/entidadesYorganismos/CentrosCulturales"
1948;"Centro Sociocultural Tetuán";"";"Horario del centro:   De lunes a viernes, de 9 a 14 y de 16 a 21 horas.  Sábados, domingos, festivos y agosto cerrado.   Horario de secretaría:   De lunes a jueves, de 9:30 a 13:30 horas y de 16:30 a 18 horas. Viernes, de 9:30 a 13:30. Julio: de lunes a viernes, de 9:30 a 13:30 horas.  Fuera de este horario el centro permanecerá abierto durante la celebración de las actividades que se programen.";"1 Salón de actos / auditorio. Aforo 96 personas (este aforo podrá verse modificado) 8 aulas 1 sala de ensayo Zona wifi (planta baja)";"Metro: Tetuán (línea 1)";"";"1";"http://www.madrid.es/sites/v/index.jsp?vgnextchannel=bfa48ab43d6bb410VgnVCM100000171f5a0aRCRD&vgnextoid=0ecb1e79ee71c010VgnVCM1000000b205a0aRCRD";"BRAVO MURILLO";"CALLE";"V";"251";"";"";"";"";"MADRID";"MADRID";"28020";"6";"BERRUGUETE";"6";"TETUAN";"440628";"4478947";"40.45907909580629";"-3.7002532146213043";"915 790 851";"";"csctetuan@madrid.es";"/contenido/entidadesYorganismos/CentrosCulturales"
1923;"Centro Sociocultural Valle Inclán (Fuencarral - El Pardo)";"";"Centro: de lunes a viernes de 9 a 14 y de 16 a 21 h.   Secretaría: de lunes a jueves de 9 a 13:30 y de 16:30 a 18:30 h. Viernes de 9 a 13:30 y de 16:30 a 18 h. Sábado, domingo y festivos cerrado. Agosto cerrado.";"Sala de exposiciones Salón de actos / auditorio 6 aulas Zona wifi";"Bus: 67 , 132";"Teléfono de secretaría 913 230 805";"1";"http://www.madrid.es/sites/v/index.jsp?vgnextchannel=bfa48ab43d6bb410VgnVCM100000171f5a0aRCRD&vgnextoid=aa1c1e79ee71c010VgnVCM1000000b205a0aRCRD";"ARZOBISPO MORCILLO";"CALLE";"V";"7";"";"";"";"";"MADRID";"MADRID";"28029";"5";"LA PAZ";"8";"FUENCARRAL-EL PARDO";"441233";"4481384";"40.48106787416528";"-3.6933504628706095";"913 230 805";"";"ccvalleinclan@madrid.es";"/contenido/entidadesYorganismos/CentrosCulturales"
1908;"Centro Sociocultural Valverde (Fuencarral - El Pardo)";"";"Centro: de lunes a viernes de 9 a 14 y de 16:30 a 22 h   Secretaría: de lunes a viernes de 9 a 13:30 y de 16:30 a 18:30 h.  Agosto cerrado.";"Sala de exposiciones Salón de actos / auditorio 7 aulas Servicio Wifi";"Metro: Fuencarral (línea 10) Bus: 66, 137";"";"1";"http://www.madrid.es/sites/v/index.jsp?vgnextchannel=bfa48ab43d6bb410VgnVCM100000171f5a0aRCRD&vgnextoid=f04c1e79ee71c010VgnVCM1000000b205a0aRCRD";"ISLAS AZORES";"PLAZA";"V";"1";"";"";"";"";"MADRID";"MADRID";"28034";"6";"VALVERDE";"8";"FUENCARRAL-EL PARDO";"441699";"4482933";"40.49504564211655";"-3.6880070256093758";"917 364 760";"";"ccvalverde@madrid.es";"/contenido/entidadesYorganismos/CentrosCulturales"
1996;"Centro Sociocultural Ágata (Villaverde)";"";"El horario del Centro Sociocultural Ágata es: de lunes a viernes de 8:30 a 21:30 horas ininterrumpidamente y los sábados de 9:30 a 13:30 horas.   Horario de secretaría:   Horario de mañana, de lunes a viernes de 9:00  a 13:30 h.  Horario de tarde,  lunes, miércoles y jueves de 17:00 a 19:30 h.  Durante el mes de  julio y Navidad el horario de secretaría será  de 9:00 a 14:00 horas.    Teléfonos:    Teléfono del Centro Sociocultural: 91 710 93 00. Teléfono de Secretaría: 91 710 92 00.";"Sala de exposiciones Sala de lectura y estudio Salón de actos / auditorio (aforo): 94 butacas y 2 espacios reservados/as para personas con movilidad reducida (silla de ruedas) 11 aulas Cafetería Zona wifi Ascensor Aseo adaptado Cambiador de bebé en la 1&amp;ordf; planta.";"Metro: Villaverde Alto (línea 3)  Cercanías Renfe: Villaverde Alto (línea C4 y C5)";"";"1";"http://www.madrid.es/sites/v/index.jsp?vgnextchannel=bfa48ab43d6bb410VgnVCM100000171f5a0aRCRD&vgnextoid=d9743d0b5e71c010VgnVCM1000000b205a0aRCRD";"DOCTOR MARTIN AREVALO";"CALLE";"V";"2";"";"";"";"";"MADRID";"MADRID";"28021";"1";"VILLAVERDE ALTO C.H.";"17";"VILLAVERDE";"439827";"4466442";"40.346369432374594";"-3.7085146991266473";"917 109 300";"";"ccagata@madrid.es";"/contenido/entidadesYorganismos/CentrosCulturales"
1916;"Centro de Cultura Contemporánea Conde Duque";"El Centro de Cultura Contemporánea Conde Duque, de adscripción municipal, se plantea como un espacio de acceso a la cultura contemporánea a través de una programación diversa e innovadora. Un lugar de vida, un centro público para difundir y compartir prácticas artísticas y culturales, abierto a toda la ciudadanía de Madrid.";"Centro: lunes a sábado, de 9 a 21 horas. Domingos y festivos, de 10:30 a 14 horas. Lunes, cerrados las salas exposiciones y las taquillas. Cerrado 24, 25 y 31 diciembre y 1 enero.   Exposiciones: martes a sábado, de 10 a 14 y de 17:30 a 21 horas. Domingos y festivos, de 10:30 a 14 horas. Consultar verano.   Taquilla: de 17:30 a 20:30 horas, de martes a viernes. Los fines de semana la taquilla abrirá dos horas antes del inicio de la función.";"Sala Polivalente: Esta sala ofrece un uso muy variado con un aforo total de 166 personas.  Sala de Bóvedas: Ubicada en la planta -2 del edificio. Cuenta con un aforo de 191 personas.   Auditorio:  1301,58 m&amp;sup2; y un aforo de 260 plazas (de las cuales dos son para espectadores en silla de ruedas y dos para acompañantes).  Teatro Conde Duque : Espacio escénico, caracterizado por su versatilidad y dotación técnica. Con una escena de 12 por 17 metros de superficie y un peine de 5,99 metros de altura. Aforo 253 localidades (de las cuales hay 4 para personas con minusvalía y sus acompañantes).   Salas de Ensayo : Conde Duque cuenta con dos grandes salas de ensayo (una destinada a propuestas teatrales y otra para danza) como complemento al Teatro.   Salón de Actos: En el Salón de Actos se desarrollan conferencias, seminarios, proyecciones audiovisuales, talleres, encuentros, presentaciones y muchas otras actividades. Se caracteriza por su versatilidad y está ubicado sobre el vestíbulo principal, desde el que tiene acceso directo. Tiene capacidad para 270 personas y sirve de apoyo a toda la programación que se genera desde el centro.  Patios: El Centro de Cultura Contemporánea Conde Duque dispone de dos de los tres patios del edificio de Conde Duque, en concreto, el Patio Central y el Patio Sur.    Zona wifi.";"Metro: Ventura Rodríguez (línea 3), San Bernardo (líneas 2 y 4), Noviciado (línea 2), Plaza de España (líneas 3 y 10)";"Teléfono de información de actividades culturales: 913 184 450  Teléfono de atención al espectador: 913 184 700 (de martes a domingo, de 10:30 a 14:30 y de 16:30 a 20:30 horas)  Teléfono de taquilla: 649 426 125 (de martes a viernes de 17:30 a 20:30 horas)   Venta de entradas.";"1";"http://www.madrid.es/sites/v/index.jsp?vgnextchannel=bfa48ab43d6bb410VgnVCM100000171f5a0aRCRD&vgnextoid=64463d0b5e71c010VgnVCM1000000b205a0aRCRD";"CONDE DUQUE";"CALLE";"V";"9";"";"";"";"y 11";"MADRID";"MADRID";"28015";"5";"UNIVERSIDAD";"1";"CENTRO";"439723";"4475438";"40.42739911262292";"-3.710589286287491";"";"";"";"/contenido/entidadesYorganismos/MonumentosEdificiosArtisticos"
11526686;"Centro de Educación Ambiental y Cultural Maris Stella (Usera)";"";"Octubre a marzo   De martes a sábado de 10 a 14 y 15:30 a 18 horas. Domingos  y festivos, de 10 a 14:0 horas.   Abril, mayo, junio y septiembre   De martes a sábado, de 10 a 14 y de 17 a 19:30 horas.  Domingos  y festivos, de 10 a 14 horas.    Julio   De martes a domingo y festivos, de 10 a 14 horas.   Agosto cerrado.";"Sala de exposiciones Sala de lectura Salón de actos/auditorio (aforo 100 personas) 2 aulas Zona wifi  El auditorio/edificio histórico tiene una acústica muy especial.";"Renfe: Doce de Octubre (C5)  Metro: Hospital 12 de Octubre (línea 3)";"";"1";"http://www.madrid.es/sites/v/index.jsp?vgnextchannel=bfa48ab43d6bb410VgnVCM100000171f5a0aRCRD&vgnextoid=85205619bc23d710VgnVCM2000001f4a900aRCRD";"DOCTOR TOLOSA LATOUR";"CALLE";"V";"16";"";"";"";"";"MADRID";"MADRID";"28026";"7";"PRADOLONGO";"12";"USERA";"440301";"4469524";"40.374166248648216";"-3.7032220308808577";"914 801 318";"";"centro.marisstella@madrid.es";"/contenido/entidadesYorganismos/CentrosCulturales"
6013703;"CentroCentro";"CentroCentro es un centro de arte contemporáneo que, desde el corazón de la ciudad y del Paseo del Arte, presta especial atención al pulso creativo vivo de Madrid, mostrando en sus salas propuestas de artistas en activo de todas las generaciones y disciplinas. CentroCentro es un punto de encuentro entre el talento artístico de la ciudad, el público y los agentes culturales que hacen ciudad y cultura. Su programación tiene como objetivo dar voz a creadores de diferentes generaciones que ejemplifican el contexto creativo contemporáneo. Revisita el trabajo de artistas de reconocida y larga trayectoria que no se ha podido ver en Madrid en las últimas décadas. Al mismo tiempo, ofrece la oportunidad a autores de media carrera para que realicen su primera exposición individual en una institución pública y da visibilidad al trabajo de nuevos creadores. Con un enfoque multidisciplinar en el que tienen cabida todas las expresiones artísticas &amp;mdash;pintura, escultura, dibujo, fotografía, diseño gráfico, performance y más&amp;mdash; las exposiciones son el eje vertebrador en torno al que se articula el resto de la actividad: encuentros, visitas guiadas con comisarios y artistas, talleres, residencias artísticas, a la que se suman la música y el microteatro, entre otras propuestas culturales.";"Exposiciones:   Martes a domingo: de 10 a  20 horas. Las salas se desalojarán 15 minutos antes del cierre del centro. Cerrado todos los lunes, 1 y 6 de enero, 1 de mayo y 24, 25 y 31 de diciembre. 5 de enero abierto en horario de mañana.";"Puesto de atención telefónica 010: identificado con el logotipo de Lineamadrid, permite a la ciudadanía contactar con el teléfono de información municipal 010, solo con descolgar y de forma gratuita.    Información turística de Madrid:  Martes a domingo, de 10 a 20 horas. Planta 2. Teléfono 34 914 544 410.  Auditorio Caja de Música   Galería de Cristal     Café Cibeles by Azotea     Martes a domingo, de 10 a 20 horas. Planta 2    Zonas de lectura     Wifi gratuito      Restaurante Cornamusa Cibeles    Lunes a domingo, de 13 a 15:30 y de 19:30 a 23 horas. Planta 6    Terraza Azotea Cibeles    Domingo a jueves, de 12 a 01 horas Viernes y sábados, de 12 a 2 horas. Planta 6    Mirador Madrid   Martes a domingo, de 10:30 a 14 y de 16 a 19:30 horas. Pases cada 30 minutos aproximadamente. Último acceso media hora antes del cierre.  Cerrado todos los lunes, 1, 5 y 6 de enero, 1 de mayo y 24, 25 y 31 de diciembre.  Visitas al Mirador Madrid   Martes y jueves: 11:30 horas. Miércoles y viernes: 17:00 horas.   Duración: 30 minutos. Grupos de 9 personas más guía. Imprescindible reserva previa. Visitas gratuitas. Reservas e información en info@centrocentro.org, en el mostrador de información (planta principal) o en el teléfono 914 800 008.   Paisaje de la Luz (Centro de Interpretación del paseo del Prado y el Buen Retiro, Paisaje de las Artes y las Ciencias)    Situado en Patio de Operaciones de CentroCentro. Horario: de martes a domingo, de 10 a 20 horas.";"Metro: Banco de España (línea 2).  Cercanías Renfe: Recoletos (líneas C2, C7, C8 y C10).";"Normas de visita y recomendaciones generales";"1";"http://www.madrid.es/sites/v/index.jsp?vgnextchannel=bfa48ab43d6bb410VgnVCM100000171f5a0aRCRD&vgnextoid=5ff519cd7bcee210VgnVCM1000000b205a0aRCRD";"CIBELES";"PLAZA";"V";"1";"";"";"";"";"MADRID";"MADRID";"28014";"5";"LOS JERONIMOS";"3";"RETIRO";"441277";"4474496";"40.41902261618159";"-3.692188193693138";"914 800 008 / 010 (914 800 010 si llama desde fuera del municipio de Madrid)";"";"info@centrocentro.org";"/contenido/entidadesYorganismos/CentrosCulturales"
10799518;"Espacio Abierto Quinta de los Molinos";"Espacio Abierto Quinta de los Molinos es el centro cultural del Ayuntamiento de Madrid dedicado a la infancia, la adolescencia y sus comunidades. Es un espacio público y simbólico que reconoce el juego como una forma propia de cultura, recogiendo las maneras de estar, inventar y relacionarse que comparten los procesos lúdicos y creativos. Su programación se centra en crear las condiciones para que la creación contemporánea, el aprendizaje activo y la imaginación compartida se vinculen con la cultura del juego, abriendo nuevos encuentros entre infancia, ciudad y vida cultural.";"De 10 a 20 horas, de miércoles a domingos. Horario de verano (julio y agosto): de 10 a 21 horas, de miércoles a domingos. Festivos cerrado. El parque abre todos los días, de 6:30 a 22 horas (durante todo el año)";"El centro cuenta con:   Auditorio Urbanoteca Espacio + Espacio 0-5 Inventario Café Jardín  Consulta la web de la entidad para más información";"Metro: Suanzes (línea 5)  Accesos al parque: tiene cinco puertas, en las calles Alcalá, Juan Ignacio Luca de Tena, Avenida 25 de Septiembre y Miami.";"";"1,6";"http://www.madrid.es/sites/v/index.jsp?vgnextchannel=bfa48ab43d6bb410VgnVCM100000171f5a0aRCRD&vgnextoid=80ddc8acadd56610VgnVCM2000001f4a900aRCRD";"JUAN IGNACIO LUCA DE TENA";"CALLE";"V";"20";"";"";"";"";"MADRID";"MADRID";"28027";"8";"EL SALVADOR";"20";"SAN BLAS-CANILLEJAS";"446636";"4477644";"40.44774002225867";"-3.6292874542291638";"913 184 590";"";"info@espacioabiertoqm.com";"/contenido/entidadesYorganismos/CentrosCulturales"
50060892;"Espacio Cultural Antonio López (Chamartín)";"";"Horario del centro:    De lunes a domingo, de 9 a 21 horas.  Sábados, domingos, festivos y agosto, cerrado.   Horario de secretaría:   De lunes a jueves, de 9 a 14 y de 17 a 19 horas.   Fuera de este horario el centro permanecerá abierto durante la celebración de las actividades que se programen.";"1 sala de exposiciones 1 sala polivalente 1 sala de estudios 9 aulas 1 sala de trabajo Zona Wifi";"Metro: Bambú (línea 1).";"";"1,5";"http://www.madrid.es/sites/v/index.jsp?vgnextchannel=bfa48ab43d6bb410VgnVCM100000171f5a0aRCRD&vgnextoid=529ec6cfcac59910VgnVCM100000891ecb1aRCRD";"PASTORA IMPERIO";"CALLE";"V";"4";"";"";"";"";"MADRID";"MADRID";"28036";"6";"CASTILLA";"5";"CHAMARTIN";"442763";"4481555";"40.48272165083992";"-3.6753079964443187";"917 571 927/915 880 765";"";"ecantoniolopez@madrid.es";"/contenido/entidadesYorganismos/CentrosCulturales"
11575320;"Espacio Cultural Núñez de Balboa, 40 (Salamanca)";"";"Todos los horarios del Centro en más información.";"4 aulas polivalentes. Salas de estudio. Sala de exposiciones. Ludoteca";"Metro: Velázquez (línea 4), Serrano (línea 4)";"Horario del centro:   De lunes a viernes de 7:45 a 21:30 horas. Sábados, de 9:15 a 14:15 y de 16:45 a 19:15 horas. Domingos, de 9:45 a 14:15 horas. Julio, agosto y septiembre de lunes a viernes de 7:45 a 21:30 horas. Sabados y domingos cerrado. Festivos: cerrado.   Horario del secretaría:  (Ubicada en C.C. Emilia Pardo Bazán, calle goya 1 subterráneo)   De lunes a jueves, de 9 a 14 y de 16 a 18 horas. Viernes, 9 a 14 horas.  Julio de lunes a viernes, de 9 a 14 horas. Agosto cerrado  Fuera de este horario el centro permanecerá abierto durante la celebración de las actividades que se programen";"1";"http://www.madrid.es/sites/v/index.jsp?vgnextchannel=bfa48ab43d6bb410VgnVCM100000171f5a0aRCRD&vgnextoid=aab225880cd6e710VgnVCM2000001f4a900aRCRD";"NUÑEZ DE BALBOA";"CALLE";"V";"40";"";"";"";"";"MADRID";"MADRID";"28001";"1";"RECOLETOS";"4";"SALAMANCA";"442103";"4475356";"40.426826159507435";"-3.6825349481985135";"913 982 399";"";"ccemiliapardobazan@madrid.es";"/contenido/entidadesYorganismos/SalasEstudioLectura"
11681451;"Espacio Cultural Serrería Belga";"Este centro cultural del Ayuntamiento de Madrid, el único situado en el entorno del Paseo del Arte y del Barrio de las Letras, ofrece una amplia oferta cultural en torno al arte, la música, el diseño, la literatura, la imagen y la gastrocultura, siendo además un punto de encuentro para agentes y profesionales de la cultura. Con cerca de 4.000 metros cuadrados, está asentado sobre un singular edificio industrial de principios del siglo XX que forma parte de la lista de inmuebles destacados que componen el Paisaje de la Luz madrileño, reconocido como Patrimonio de la Humanidad por la UNESCO. El proyecto de rehabilitación del edificio ha sido reconocido con premios como el de la XII Bienal Española de Arquitectura y Urbanismo de 2013, el premio COAM de 2013, el premio Sacyr a la Innovación de 2014 y el premio COAM +10 en 2023. Actualmente, este espacio versátil y con personalidad propia dirigido a un público heterogéneo refleja la efervescencia cultural de la ciudad en el que tienen cabida todo tipo de proyectos creativos y expositivos. Cuenta con más de 1.000m2 para exposiciones artísticas y una amplia zona dedicada a la poesía, la literatura y el papel de Madrid como capital literaria a lo largo de los siglos. Todas las actividades del Espacio Cultural Serrería Belga son gratuitas y de acceso libre salvo que se indique lo contrario. Para aquellas actividades que requieran acceso con entrada consultar www.serreria-belga.es";"Del 21 de mayo al 22 de junio, de lunes a sábados de 11 a 20 horas y los domingos de 11 a 19 horas .  Horario general: de martes a viernes de 11 a 20 horas; sábados de 12 a 20 horas y domingos de 12 a 18 horas. Los lunes el centro permanece cerrado.";"";"Metro: Estación del Arte (línea 1)  Cercanías Renfe: Atocha (líneas C1, C2, C3, C4, C5, C7, y C10)";"Todas las actividades del Espacio Cultural Serrería Belga son gratuitas.  Para aquellas actividades requieran acceso con entrada consultar www.serreria-belga.es";"1";"http://www.madrid.es/sites/v/index.jsp?vgnextchannel=bfa48ab43d6bb410VgnVCM100000171f5a0aRCRD&vgnextoid=c3c0f13cd18a0810VgnVCM1000001d4a900aRCRD";"ALAMEDA";"CALLE";"V";"15";"";"";"";"";"MADRID";"MADRID";"28014";"3";"CORTES";"1";"CENTRO";"441134";"4473558";"40.4105673503608";"-3.6937819843413373";"";"";"hola@serreria-belga.es";"/contenido/entidadesYorganismos/CentrosCulturales"
10915700;"Espacio Polivalente Embajadores";"";"";"1 Pista de fútbol sala 1 Pista de petanca";"Bus: 25 , 31 , 33 , 36 , 39 , 41 , 50 , 65 , 138 , C";"";"0";"http://www.madrid.es/sites/v/index.jsp?vgnextchannel=bfa48ab43d6bb410VgnVCM100000171f5a0aRCRD&vgnextoid=a0103e641a099610VgnVCM1000001d4a900aRCRD";"EMBAJADORES";"CALLE";"V";"18";"";"";"";"";"MADRID";"MADRID";"28012";"2";"EMBAJADORES";"1";"CENTRO";"440080";"4473475";"40.40974351501623";"-3.7062002853639266";"";"";"";"/contenido/entidadesYorganismos/CentrosEspaciosDeporte"
1915;"Fernán Gómez Centro Cultural de la Villa";"";"Consultar en la página del teatro.";"Sala Guirau (aforo 732 personas)  Sala Jardiel Poncela (aforo 174 personas)  Sala María Dolores Pradera (aforo 125 personas)  Sala de exposiciones (aforo 450 personas condicionado a los montajes)  Sala Polivalente (aforo 48 personas)";"Metro: Colón (línea 4), Serrano (línea 4)  Cercanías Renfe: Recoletos (líneas C1, C10, C2, C7)";"";"1,6";"http://www.madrid.es/sites/v/index.jsp?vgnextchannel=bfa48ab43d6bb410VgnVCM100000171f5a0aRCRD&vgnextoid=ba663d0b5e71c010VgnVCM1000000b205a0aRCRD";"COLON";"PLAZA";"V";"4";"";"";"";"";"MADRID";"MADRID";"28001";"1";"RECOLETOS";"4";"SALAMANCA";"441472";"4475155";"40.4249721516942";"-3.689948085098791";"913 184 631";"";"info.tfg@teatrofernangomez.es";"/contenido/entidadesYorganismos/Teatros"
11601456;"Locales de ensayo del Distrito Salamanca";"Sala 1: Pau Donés  Sala 2: Luis Eduardo Aute  Sala 3: Sala de Espejos   &amp;iquest;Tienes un grupo de música? &amp;iquest;teatro? &amp;iquest;baile? Tú pones el talento y nosotros el local para que ensayes. Iniciamos nueva temporada en los Locales de Ensayo de Torrespaña. Las salas se ceden de manera gratuita y hasta un máximo de tres horas. No te quedes sin plaza. &amp;iexcl;Te esperamos!";"De martes a viernes, de 16 a 21 horas. Sábados, de 11 a 14 y de 17 a 21 horas. Servicio no disponible entre el 1 de julio y el 31 de agosto de cada año.";"";"Metro: O'Donnell (línea 6)";"";"1,5";"http://www.madrid.es/sites/v/index.jsp?vgnextchannel=bfa48ab43d6bb410VgnVCM100000171f5a0aRCRD&vgnextoid=3f00d661fc60f710VgnVCM1000001d4a900aRCRD";"ALCALDE SAINZ DE BARANDA";"CALLE";"V";"94";"";"";"";"";"MADRID";"MADRID";"28007";"3";"FUENTE DEL BERRO";"4";"SALAMANCA";"443945";"4474719";"40.42121783502117";"-3.6607653462118437";"672 719 338";"";"localensayosalamanca@madrid.es";"/contenido/entidadesYorganismos/CentrosCulturales"
4684678;"Matadero Madrid";"Espacios   Matadero Madrid Centro de residencias Intermediae Medialab Cineteca Madrid Nave 10 Matadero Creación Dramática Contemporánea";"Plaza Matadero - Calle Matadero - Placita   Accesos Plaza de Legazpi, Paseo de la Chopera, Madrid Río y Casa del Reloj Horario habitual del Centro Cultural: de lunes a domingo de 9  a 22 horas. A partir de las 22 horas la entrada y salida del recinto se realiza exclusivamente por el acceso de Plaza de Legazpi. Punto de información Paseo de la Chopera,14, lunes a domingo de 9:30 a 21:30 horas.";"";"Renfe: Embajadores   Metro: Legazpi (líneas 3, 6)";"";"1";"http://www.madrid.es/sites/v/index.jsp?vgnextchannel=bfa48ab43d6bb410VgnVCM100000171f5a0aRCRD&vgnextoid=ef686a9ee7336110VgnVCM1000000b205a0aRCRD";"LEGAZPI";"PLAZA";"V";"8";"";"";"";"";"MADRID";"MADRID";"28045";"3";"CHOPERA";"2";"ARGANZUELA";"440946";"4471422";"40.39130985242181";"-3.6958028442054074";"913 184 670";"";"info@mataderomadrid.org";"/contenido/entidadesYorganismos/SalasExposiciones"
4776440;"Matadero Medialab";"Medialab Matadero es un programa del Área de Gobierno de Cultura, Turismo y Deporte del Ayuntamiento de Madrid creado en 2002. Ubicado en un espacio cultural único, el centro de creación contemporánea Matadero Madrid, Medialab Matadero es una plataforma institucional de investigación, creación y producción experimental impulsada por la dinámica del Procomún.";"";"";"Metro:  Legazpi (líneas 3 y 6)";"";"1";"http://www.madrid.es/sites/v/index.jsp?vgnextchannel=bfa48ab43d6bb410VgnVCM100000171f5a0aRCRD&vgnextoid=79f59dacff4d7110VgnVCM1000000b205a0aRCRD";"CHOPERA";"PASEO";"V";"14";"";"";"";"";"MADRID";"MADRID";"28045";"3";"CHOPERA";"2";"ARGANZUELA";"440828";"4471551";"40.39245798191536";"-3.6972067902718897";"913 184 670";"";"info.m@medialab-matadero.es";"/contenido/entidadesYorganismos/CentrosCulturales"
10189992;"Nave de Terneras del Centro Cultural Casa del Reloj";"";"El centro permanecerá abierto durante la celebración de las actividades que se programen. Agosto cerrado.";"Wifi Aforo: 492 personas";"Metro: Legazpi (líneas 3, 6)";"";"1";"http://www.madrid.es/sites/v/index.jsp?vgnextchannel=bfa48ab43d6bb410VgnVCM100000171f5a0aRCRD&vgnextoid=6c5c625c0d168510VgnVCM1000001d4a900aRCRD";"CHOPERA";"PASEO";"V";"10";"";"";"";"";"MADRID";"MADRID";"28045";"3";"CHOPERA";"2";"ARGANZUELA";"440676";"4471620";"40.39307289237465";"-3.699005654074825";"915 886 299 / 915 886 118";"";"";"/contenido/entidadesYorganismos/CentrosCulturales"
11956343;"Sala de exposiciones La Lonja. Centro Cultural Casa del Reloj (Arganzuela)";"";"De lunes a sábado de 9 a 21 horas Agosto cerrado";"Aforo: 75 personas";"Metro: Legazpi (líneas 3, 6)";"";"1";"http://www.madrid.es/sites/v/index.jsp?vgnextchannel=bfa48ab43d6bb410VgnVCM100000171f5a0aRCRD&vgnextoid=3de6d4ddebac6810VgnVCM1000001d4a900aRCRD";"CHOPERA";"PASEO";"V";"10";"";"";"";"";"MADRID";"MADRID";"28045";"3";"CHOPERA";"2";"ARGANZUELA";"440676";"4471620";"40.39307289237465";"-3.699005654074825";"915 886 299 / 915 886 118";"";"";"/contenido/entidadesYorganismos/SalasExposiciones"
11701924;"Salón y sala de exposiciones en Junta Municipal de Usera";"";"En el que se programen los actos.";"Sala de exposiciones Salón de actos / auditorio (aforo 190 butacas) Zona wifi";"Metro: Plaza Elíptica (línea 6)";"";"2";"http://www.madrid.es/sites/v/index.jsp?vgnextchannel=bfa48ab43d6bb410VgnVCM100000171f5a0aRCRD&vgnextoid=5fb8370bbde11810VgnVCM1000001d4a900aRCRD";"RAFAELA YBARRA";"AVENIDA";"V";"41";"";"";"";"";"MADRID";"MADRID";"28026";"7";"PRADOLONGO";"12";"USERA";"439660";"4470442";"40.3823867401053";"-3.710861696949648";"915 887 214";"";"ccusera@madrid.es";"/contenido/entidadesYorganismos/SalasExposiciones"
